{"version": 0.6, "generator": "Overpass API 0.7.62.8 e802775f", "osm3s": {"timestamp_osm_base": "2025-11-07T20:33:46Z", "copyright": "The data included in this document is from www.openstreetmap.org. The data is made available under ODbL."}, "elements": [{"type": "node", "id": 1417766062, "lat": 52.6445727, "lon": -8.6319353}, {"type": "node", "id": 1417766066, "lat": 52.6441812, "lon": -8.634467}, {"type": "node", "id": 1417766068, "lat": 52.6455324, "lon": -8.6351048}, {"type": "node", "id": 1417766074, "lat": 52.6458829, "lon": -8.6328651}, {"type": "node", "id": 1813291067, "lat": 52.6451795, "lon": -8.632199}, {"type": "node", "id": 1813291068, "lat": 52.6452051, "lon": -8.6320877}, {"type": "node", "id": 1813291069, "lat": 52.6452343, "lon": -8.6322331}, {"type": "node", "id": 1813291070, "lat": 52.6452598, "lon": -8.6321219}, {"type": "node", "id": 1813291071, "lat": 52.645289, "lon": -8.6322673}, {"type": "node", "id": 1813291072, "lat": 52.6453145, "lon": -8.632156}, {"type": "node", "id": 1813291073, "lat": 52.6453437, "lon": -8.6323014}, {"type": "node", "id": 1813291074, "lat": 52.6453693, "lon": -8.6321902}, {"type": "node", "id": 1813301880, "lat": 52.6453723, "lon": -8.6323211}, {"type": "node", "id": 1813301881, "lat": 52.6454017, "lon": -8.6321957}, {"type": "node", "id": 1813301882, "lat": 52.6454286, "lon": -8.6323569}, {"type": "node", "id": 1813301883, "lat": 52.645458, "lon": -8.6322315}, {"type": "node", "id": 1813301884, "lat": 52.6454848, "lon": -8.6323928}, {"type": "node", "id": 1813301885, "lat": 52.6455142, "lon": -8.6322674}, {"type": "node", "id": 1813301886, "lat": 52.6455411, "lon": -8.6324286}, {"type": "node", "id": 1813301887, "lat": 52.6455705, "lon": -8.6323032}, {"type": "node", "id": 1813301888, "lat": 52.6455974, "lon": -8.6324644}, {"type": "node", "id": 1813301889, "lat": 52.6456268, "lon": -8.6323391}, {"type": "node", "id": 1842569994, "lat": 52.6448485, "lon": -8.632115}, {"type": "node", "id": 1842569997, "lat": 52.6449365, "lon": -8.6317736}, {"type": "node", "id": 1850825605, "lat": 52.6449733, "lon": -8.6348131}, {"type": "node", "id": 2874279915, "lat": 52.6451031, "lon": -8.6328433}, {"type": "node", "id": 2874279927, "lat": 52.645147, "lon": -8.6326459}, {"type": "node", "id": 2874279945, "lat": 52.645191, "lon": -8.6324486}, {"type": "node", "id": 2874279987, "lat": 52.6453472, "lon": -8.632991}, {"type": "node", "id": 2874280005, "lat": 52.6453912, "lon": -8.6327937}, {"type": "node", "id": 2874280021, "lat": 52.6454314, "lon": -8.6328211}, {"type": "node", "id": 2874280023, "lat": 52.6454351, "lon": -8.6325964}, {"type": "node", "id": 2874280030, "lat": 52.6454753, "lon": -8.6326238}, {"type": "node", "id": 2874280068, "lat": 52.6456755, "lon": -8.6329689}, {"type": "node", "id": 2874280073, "lat": 52.6457195, "lon": -8.6327715}, {"type": "node", "id": 2874280146, "lat": 52.646882, "lon": -8.6334303}, {"type": "node", "id": 2874280151, "lat": 52.6469783, "lon": -8.6330399}, {"type": "node", "id": 7442671333, "lat": 52.6448806, "lon": -8.6347739}, {"type": "node", "id": 7442671334, "lat": 52.6448171, "lon": -8.634746}, {"type": "way", "id": 128253738, "nodes": [1417766068, 1850825605, 7442671333, 7442671334, 1417766066, 1417766062, 1842569994, 1417766074, 1417766068], "tags": {"leisure": "sports_centre", "name": "Catholic Institute Athletics Club", "sport": "athletics", "website": "http://www.ciac-limerick.org"}}, {"type": "way", "id": 170173369, "nodes": [1813291067, 1813291069, 1813291070, 1813291068, 1813291067], "tags": {"addr:city": "Limerick", "addr:country": "IE", "addr:housenumber": "68", "addr:street": "Rosbrien Road", "building": "house", "building:cladding": "brick", "building:levels": "2", "house": "terraced", "roof:material": "roof_tiles", "roof:shape": "gabled", "source": "survey", "source:geometry": "bing"}}, {"type": "way", "id": 170173370, "nodes": [1813291069, 1813291071, 1813291072, 1813291070, 1813291069], "tags": {"addr:city": "Limerick", "addr:country": "IE", "addr:housenumber": "69", "addr:street": "Rosbrien Road", "building": "house", "building:cladding": "brick", "building:levels": "2", "house": "terraced", "roof:material": "roof_tiles", "roof:shape": "gabled", "source": "survey", "source:geometry": "bing"}}, {"type": "way", "id": 170173371, "nodes": [1813291071, 1813291073, 1813291074, 1813291072, 1813291071], "tags": {"addr:city": "Limerick", "addr:country": "IE", "addr:housenumber": "70", "addr:street": "Rosbrien Road", "building": "house", "building:cladding": "brick", "building:levels": "2", "house": "terraced", "roof:material": "roof_tiles", "roof:shape": "gabled", "source": "survey", "source:geometry": "bing"}}, {"type": "way", "id": 170174180, "nodes": [1813301880, 1813301882, 1813301883, 1813301881, 1813301880], "tags": {"addr:city": "Limerick", "addr:country": "IE", "addr:housename": "Saint Helens", "addr:housenumber": "71", "addr:street": "Rosbrien Road", "building": "house", "building:cladding": "brick", "building:levels": "2", "house": "terraced", "roof:material": "roof_tiles", "roof:shape": "gabled", "source": "survey", "source:geometry": "bing"}}, {"type": "way", "id": 170174181, "nodes": [1813301882, 1813301884, 1813301885, 1813301883, 1813301882], "tags": {"addr:city": "Limerick", "addr:country": "IE", "addr:housename": "Saint Judes", "addr:housenumber": "72", "addr:street": "Rosbrien Road", "building": "house", "building:cladding": "brick", "building:levels": "2", "house": "terraced", "roof:material": "roof_tiles", "roof:shape": "gabled", "source": "survey", "source:geometry": "bing"}}, {"type": "way", "id": 170174222, "nodes": [1813301884, 1813301886, 1813301887, 1813301885, 1813301884], "tags": {"addr:city": "Limerick", "addr:country": "IE", "addr:housenumber": "73", "addr:street": "Rosbrien Road", "building": "house", "building:cladding": "brick", "building:levels": "2", "house": "terraced", "roof:material": "roof_tiles", "roof:shape": "gabled", "source": "survey", "source:geometry": "bing"}}, {"type": "way", "id": 170174223, "nodes": [1813301886, 1813301888, 1813301889, 1813301887, 1813301886], "tags": {"addr:city": "Limerick", "addr:country": "IE", "addr:housenumber": "74", "addr:street": "Rosbrien Road", "building": "house", "building:cladding": "brick", "building:levels": "2", "house": "terraced", "roof:material": "roof_tiles", "roof:shape": "gabled", "source": "survey", "source:geometry": "bing"}}, {"type": "way", "id": 283586214, "nodes": [2874280146, 2874280151, 1842569997, 1842569994, 1417766074, 2874280146], "tags": {"landuse": "residential"}}, {"type": "way", "id": 283586290, "nodes": [2874280030, 2874280021, 2874280068, 2874280073, 2874280030], "tags": {"leisure": "pitch", "sport": "tennis"}}, {"type": "way", "id": 283586292, "nodes": [2874279927, 2874279915, 2874279987, 2874280005, 2874279927], "tags": {"leisure": "pitch", "sport": "tennis"}}, {"type": "way", "id": 283586296, "nodes": [2874279945, 2874279927, 2874280005, 2874280023, 2874279945], "tags": {"leisure": "pitch", "sport": "tennis"}}]}