{"version": 0.6, "generator": "Overpass API 0.7.62.8 e802775f", "osm3s": {"timestamp_osm_base": "2025-11-08T08:56:36Z", "copyright": "The data included in this document is from www.openstreetmap.org. The data is made available under ODbL."}, "elements": [{"type": "node", "id": 250559085, "lat": 52.6632296, "lon": -8.6273461, "tags": {"crossing": "marked", "crossing:markings": "yes", "highway": "crossing", "tactile_paving": "yes"}}, {"type": "node", "id": 250634254, "lat": 52.6629541, "lon": -8.6266288}, {"type": "node", "id": 373531212, "lat": 52.662314, "lon": -8.6250131}, {"type": "node", "id": 1021255408, "lat": 52.6626374, "lon": -8.6260556, "tags": {"direction": "forward", "highway": "stop"}}, {"type": "node", "id": 1021255449, "lat": 52.662971, "lon": -8.6258221}, {"type": "node", "id": 1307323206, "lat": 52.6624254, "lon": -8.6262857}, {"type": "node", "id": 1315346190, "lat": 52.6627968, "lon": -8.6259078, "tags": {"addr:city": "Limerick", "addr:housenumber": "13", "addr:street": "Thomas Street", "amenity": "cafe", "check_date": "2024-01-28", "name": "Charlton", "toilets:wheelchair": "no", "wheelchair": "limited"}}, {"type": "node", "id": 1315346193, "lat": 52.6627203, "lon": -8.6257223, "tags": {"check_date": "2024-01-28", "name": "Tadhg Kearney", "shop": "jewelry", "wheelchair": "yes"}}, {"type": "node", "id": 1315346195, "lat": 52.6628842, "lon": -8.6258064, "tags": {"amenity": "cafe", "check_date": "2024-01-28", "name": "Melt", "toilets:wheelchair": "no", "wheelchair": "limited"}}, {"type": "node", "id": 1347765566, "lat": 52.6627324, "lon": -8.6260382}, {"type": "node", "id": 1347765578, "lat": 52.6629851, "lon": -8.6255771}, {"type": "node", "id": 1460572850, "lat": 52.6626688, "lon": -8.625923}, {"type": "node", "id": 1460572851, "lat": 52.6627357, "lon": -8.62585}, {"type": "node", "id": 1460573001, "lat": 52.6618648, "lon": -8.6268747}, {"type": "node", "id": 2992343504, "lat": 52.6623875, "lon": -8.6263268}, {"type": "node", "id": 2992343511, "lat": 52.6629754, "lon": -8.6266869, "tags": {"barrier": "bollard", "bollard": "rising"}}, {"type": "node", "id": 3658416408, "lat": 52.662817, "lon": -8.6256007, "tags": {"check_date": "2024-01-28", "name": "O' Connell's", "shop": "butcher", "wheelchair": "yes"}}, {"type": "node", "id": 4024769350, "lat": 52.6626719, "lon": -8.6256292, "tags": {"addr:city": "Limerick", "addr:street": "Thomas Street", "check_date": "2024-01-28", "name": "Zip Yard", "opening_hours": "Mo-Sa 08:30-18:00", "phone": "+353 61 481 676", "shop": "tailor", "wheelchair": "limited"}}, {"type": "node", "id": 4030104136, "lat": 52.6628684, "lon": -8.6260491, "tags": {"addr:city": "Limerick", "addr:housenumber": "11", "addr:street": "Thomas Street", "amenity": "fast_food", "check_date": "2024-01-28", "cuisine": "noodle;salad", "name": "Mr Noodle", "opening_hours": "Mo,We-Sa 13:00-23:00; Tu,Su 14:00-23:00", "phone": "+353 61 406 999", "wheelchair": "yes"}}, {"type": "node", "id": 4030104138, "lat": 52.6626322, "lon": -8.625527, "tags": {"check_date": "2024-01-28", "name": "Saint Vincent de Paul", "shop": "charity"}}, {"type": "node", "id": 4030104142, "lat": 52.6627155, "lon": -8.6259926}, {"type": "node", "id": 4030104143, "lat": 52.6626635, "lon": -8.6260013}, {"type": "node", "id": 4035101237, "lat": 52.6628144, "lon": -8.625686}, {"type": "node", "id": 4035101238, "lat": 52.6627223, "lon": -8.6257848}, {"type": "node", "id": 4035101239, "lat": 52.6627745, "lon": -8.6255848}, {"type": "node", "id": 4035101240, "lat": 52.6626823, "lon": -8.6256836}, {"type": "node", "id": 4035101241, "lat": 52.6627328, "lon": -8.6254791}, {"type": "node", "id": 4035101242, "lat": 52.6626406, "lon": -8.6255779}, {"type": "node", "id": 4035101243, "lat": 52.6627007, "lon": -8.6253991}, {"type": "node", "id": 4035101244, "lat": 52.6626085, "lon": -8.6254988}, {"type": "node", "id": 4512719673, "lat": 52.6630046, "lon": -8.6257886}, {"type": "node", "id": 4512719676, "lat": 52.6629639, "lon": -8.6256813}, {"type": "node", "id": 4512728818, "lat": 52.6629041, "lon": -8.6254458}, {"type": "node", "id": 4512728819, "lat": 52.662944, "lon": -8.625547}, {"type": "node", "id": 4512728820, "lat": 52.6628872, "lon": -8.6256079}, {"type": "node", "id": 4512728821, "lat": 52.6628472, "lon": -8.6255068}, {"type": "node", "id": 4512728822, "lat": 52.6628567, "lon": -8.625795}, {"type": "node", "id": 4512728823, "lat": 52.6628889, "lon": -8.6258804}, {"type": "node", "id": 4512728824, "lat": 52.6627917, "lon": -8.62598}, {"type": "node", "id": 4512728825, "lat": 52.6627595, "lon": -8.6258946}, {"type": "node", "id": 4512728826, "lat": 52.6628951, "lon": -8.6258969}, {"type": "node", "id": 4512728827, "lat": 52.6629487, "lon": -8.625842}, {"type": "node", "id": 4512728828, "lat": 52.6629102, "lon": -8.6257401}, {"type": "node", "id": 4519820990, "lat": 52.6628768, "lon": -8.6258928}, {"type": "node", "id": 4519820991, "lat": 52.6629024, "lon": -8.6259606}, {"type": "node", "id": 4519820992, "lat": 52.6628173, "lon": -8.6260478}, {"type": "node", "id": 4519820993, "lat": 52.6629314, "lon": -8.6260376}, {"type": "node", "id": 4519820994, "lat": 52.6628464, "lon": -8.6261248}, {"type": "node", "id": 4519820995, "lat": 52.6629607, "lon": -8.6261153}, {"type": "node", "id": 4519820996, "lat": 52.6628757, "lon": -8.6262025}, {"type": "node", "id": 5003987723, "lat": 52.662828, "lon": -8.6260123, "tags": {"addr:city": "Limerick", "addr:housenumber": "12", "addr:street": "Thomas Street", "amenity": "restaurant", "brand": "Freshii", "brand:wikidata": "Q5503051", "brand:wikipedia": "en:Freshii", "check_date": "2024-01-28", "cuisine": "salad", "name": "Freshii", "shop": "bakery"}}, {"type": "node", "id": 5003987724, "lat": 52.6628444, "lon": -8.6260525, "tags": {"addr:city": "Limerick", "addr:housenumber": "11", "addr:street": "Thomas Street", "name": "Gavin & Moore", "shop": "hairdresser"}}, {"type": "node", "id": 5003987725, "lat": 52.6628548, "lon": -8.6260887, "tags": {"addr:city": "Limerick", "addr:housenumber": "11", "addr:street": "Thomas Street", "check_date": "2024-01-28", "name": "Dee Vaughan's Hair Salon", "phone": "+353 61 415 675", "shop": "hairdresser"}}, {"type": "node", "id": 5003987729, "lat": 52.6628614, "lon": -8.6259407, "tags": {"addr:city": "Limerick", "addr:housenumber": "12", "addr:street": "Thomas Street", "check_date": "2024-01-28", "level": "2", "name": "Cleo Beauty", "operator": "Agnieszka", "phone": "+353 87 0920 151", "shop": "beauty"}}, {"type": "node", "id": 5003987730, "lat": 52.662868, "lon": -8.6259614, "tags": {"addr:city": "Limerick", "addr:housenumber": "12", "addr:street": "Thomas Street", "check_date": "2024-01-28", "level": "2", "name": "Paulina Eyelash", "operator": "Paulina", "phone": "+353 87 6286969", "shop": "beauty"}}, {"type": "node", "id": 5003990735, "lat": 52.6626474, "lon": -8.6256466, "tags": {"check_date": "2024-01-28", "level": "-1", "name": "Bullman's Tattoo Studio", "phone": "+353 61 408561", "shop": "tattoo"}}, {"type": "node", "id": 5728749711, "lat": 52.6631945, "lon": -8.6272505, "tags": {"barrier": "bollard"}}, {"type": "node", "id": 7529723022, "lat": 52.6624252, "lon": -8.6263781, "tags": {"barrier": "kerb", "kerb": "flush", "tactile_paving": "yes"}}, {"type": "node", "id": 7529723024, "lat": 52.6626682, "lon": -8.6261093}, {"type": "node", "id": 7529723025, "lat": 52.6626988, "lon": -8.6258886, "tags": {"barrier": "kerb", "check_date:tactile_paving": "2025-09-26", "kerb": "flush", "tactile_paving": "no"}}, {"type": "node", "id": 7529723026, "lat": 52.6626957, "lon": -8.626026, "tags": {"barrier": "kerb", "check_date:tactile_paving": "2025-09-26", "kerb": "flush", "tactile_paving": "no"}}, {"type": "node", "id": 7529723030, "lat": 52.6626976, "lon": -8.625966, "tags": {"crossing:markings": "no", "crossing:signals": "no", "highway": "crossing", "tactile_paving": "no"}}, {"type": "node", "id": 7529926687, "lat": 52.663228, "lon": -8.6253309}, {"type": "node", "id": 7529926692, "lat": 52.6621374, "lon": -8.6242652}, {"type": "node", "id": 7529926693, "lat": 52.6621107, "lon": -8.6242951}, {"type": "node", "id": 7529926694, "lat": 52.6626631, "lon": -8.6257675}, {"type": "node", "id": 7529926778, "lat": 52.6623986, "lon": -8.6261551, "tags": {"barrier": "kerb", "kerb": "flush", "tactile_paving": "yes"}}, {"type": "node", "id": 7529926779, "lat": 52.6626005, "lon": -8.6259379}, {"type": "node", "id": 7529926780, "lat": 52.6626084, "lon": -8.6259116}, {"type": "node", "id": 7529926781, "lat": 52.6626075, "lon": -8.6258788}, {"type": "node", "id": 7529926782, "lat": 52.6622881, "lon": -8.6250848}, {"type": "node", "id": 7529926783, "lat": 52.6620852, "lon": -8.6253121, "tags": {"barrier": "kerb", "kerb": "flush", "tactile_paving": "yes"}}, {"type": "node", "id": 11539971663, "lat": 52.6628755, "lon": -8.6260684, "tags": {"addr:city": "Limerick", "addr:housenumber": "11", "addr:postcode": "V94 KH64", "addr:street": "Thomas Street", "beauty": "skin_care", "check_date": "2024-01-28", "contact:facebook": "https://www.facebook.com/melissafergusonthefacialist/", "contact:instagram": "https://instagram.com/melissafergusonthefacialists", "contact:tiktok": "https://tiktok.com/@thefacialistmf", "email": "hello@facialist.ie", "name": "Melissa Ferguson Skin Studios", "opening_hours": "Mo-We 09:00-17:00; Th 11:00-19:00; Fr 09:00-17:00; Sa off; Su off", "payment:cash": "yes", "payment:credit_cards": "yes", "payment:debit_cards": "yes", "phone": "+353 85 800 0471", "shop": "beauty", "website": "https://facialist.ie"}}, {"type": "node", "id": 11559969936, "lat": 52.6628495, "lon": -8.6259786, "tags": {"beauty": "eyebrow", "check_date": "2024-01-28", "name": "Mary Kiely Makeup & Brow Artist", "shop": "beauty"}}, {"type": "node", "id": 11559969937, "lat": 52.6628367, "lon": -8.6259588, "tags": {"check_date": "2024-01-28", "name": "Kristina's Hair Studio", "shop": "hairdresser"}}, {"type": "node", "id": 11559969938, "lat": 52.6628151, "lon": -8.6259757, "tags": {"check_date": "2024-01-28", "name": "Emma Sheehan Makeup", "shop": "beauty"}}, {"type": "node", "id": 11559969939, "lat": 52.6628726, "lon": -8.6259258, "tags": {"amenity": "doctors", "check_date": "2024-01-28", "healthcare": "doctor", "healthcare:speciality": "dermatology", "name": "Skin By Dr. Orla & Nurse Louise"}}, {"type": "node", "id": 12328638249, "lat": 52.6625971, "lon": -8.6260347, "tags": {"amenity": "bicycle_repair_station", "fee": "no", "opening_hours": "24/7", "operator": "Limerick City & County Council", "service:bicycle:pump": "yes", "service:bicycle:repair": "yes", "service:bicycle:repair_stand": "yes", "service:bicycle:tools": "yes"}}, {"type": "node", "id": 12328666506, "lat": 52.66192, "lon": -8.6268169, "tags": {"crossing:markings": "no", "crossing:signals": "no", "highway": "crossing", "tactile_paving": "yes"}}, {"type": "way", "id": 23177798, "nodes": [250559085, 5728749711, 2992343511, 250634254, 1347765566], "tags": {"cycleway:both": "no", "highway": "unclassified", "lane_markings": "no", "lanes": "1", "lit": "yes", "logainm:ref": "1405059", "logainm:url": "https://www.logainm.ie/1405059.aspx", "name": "Thomas Street", "name:en": "Thomas Street", "name:ga": "Sr\u00e1id Thom\u00e1is", "oneway": "yes", "ref": "L10336", "source": "name: street sign", "surface": "sett", "wikidata": "Q7794239"}}, {"type": "way", "id": 23177800, "nodes": [7529926687, 1347765578, 1460572851, 7529723025], "tags": {"highway": "pedestrian", "name": "Little Catherine Street", "name:ga": "Sr\u00e1id Beag Chaitr\u00edona", "surface": "paved"}}, {"type": "way", "id": 120139841, "nodes": [1347765566, 4030104142, 7529723030, 1460572850], "tags": {"cycleway:both": "no", "highway": "unclassified", "lane_markings": "no", "lanes": "1", "lit": "yes", "logainm:ref": "1405059", "logainm:url": "https://www.logainm.ie/1405059.aspx", "name": "Thomas Street", "name:en": "Thomas Street", "name:ga": "Sr\u00e1id Thom\u00e1is", "oneway": "yes", "ref": "L10336", "surface": "paving_stones", "wikidata": "Q7794239"}}, {"type": "way", "id": 401035957, "nodes": [4035101240, 4035101239, 4035101237, 4035101238, 4035101240], "tags": {"building": "retail"}}, {"type": "way", "id": 401035958, "nodes": [4035101242, 4035101241, 4035101239, 4035101240, 4035101242], "tags": {"building": "retail"}}, {"type": "way", "id": 401035959, "nodes": [4035101244, 4035101243, 4035101241, 4035101242, 4035101244], "tags": {"building": "retail"}}, {"type": "way", "id": 454743507, "nodes": [4512728818, 4512728819, 4512728820, 4512728821, 4512728818], "tags": {"amenity": "restaurant", "building": "retail", "check_date": "2024-01-28", "name": "O & F", "wheelchair": "yes"}}, {"type": "way", "id": 454743508, "nodes": [4512728820, 4035101237, 4035101239, 4512728821, 4512728820], "tags": {"building": "retail", "wheelchair": "limited"}}, {"type": "way", "id": 454743509, "nodes": [4512728822, 4512728823, 4519820990, 4512728824, 4512728825, 4512728822], "tags": {"building": "retail", "check_date": "2024-01-28"}}, {"type": "way", "id": 454743510, "nodes": [4512728822, 4512728823, 4512728826, 4512728827, 4512728828, 4512728822], "tags": {"building": "retail", "name": "Malt"}}, {"type": "way", "id": 454743511, "nodes": [4512728827, 1021255449, 4512719673, 4512719676, 4512728828, 4512728827], "tags": {"building": "yes", "disused:amenity": "cafe"}}, {"type": "way", "id": 455591779, "nodes": [4519820990, 4519820991, 4519820992, 4512728824, 4519820990], "tags": {"building": "yes"}}, {"type": "way", "id": 455591780, "nodes": [4519820991, 4519820993, 4519820994, 4519820992, 4519820991], "tags": {"addr:city": "Limerick", "addr:housenumber": "11", "addr:postcode": "V94 KH64", "addr:street": "Thomas Street", "building": "yes", "fixme": "check what shops are still present here"}}, {"type": "way", "id": 455591781, "nodes": [4519820993, 4519820995, 4519820996, 4519820994, 4519820993], "tags": {"building": "retail"}}, {"type": "way", "id": 603474149, "nodes": [1460573001, 12328666506, 2992343504, 1307323206, 1021255408, 4030104143, 1460572850], "tags": {"highway": "unclassified", "lanes": "1", "lit": "yes", "maxspeed": "50", "name": "Catherine Street", "name:ga": "Sr\u00e1id Chaitr\u00edona", "oneway": "yes", "smoothness": "excellent", "source": "names: street sign", "surface": "asphalt"}}, {"type": "way", "id": 805015455, "nodes": [7529723026, 7529723024, 7529723022], "tags": {"footway": "sidewalk", "highway": "footway", "lit": "yes", "surface": "paving_stones"}}, {"type": "way", "id": 805015457, "nodes": [7529723026, 7529723030, 7529723025], "tags": {"footway": "crossing", "highway": "footway", "lit": "yes", "surface": "sett"}}, {"type": "way", "id": 805092180, "nodes": [7529926692, 7529926693, 7529926694, 7529723025], "tags": {"footway": "sidewalk", "highway": "footway", "lit": "yes", "surface": "paving_stones"}}, {"type": "way", "id": 805092217, "nodes": [7529926778, 7529926779, 7529926780, 7529926781, 7529926782, 7529926783], "tags": {"footway": "sidewalk", "highway": "footway", "lit": "yes", "surface": "paving_stones"}}, {"type": "way", "id": 1256685532, "nodes": [1460572850, 373531212], "tags": {"cycleway:both": "no", "highway": "unclassified", "lane_markings": "no", "lanes": "1", "lit": "yes", "logainm:ref": "1405059", "logainm:url": "https://www.logainm.ie/1405059.aspx", "name": "Thomas Street", "name:en": "Thomas Street", "name:ga": "Sr\u00e1id Thom\u00e1is", "oneway": "yes", "ref": "L10336", "sidewalk": "both", "source": "names: street sign", "surface": "asphalt", "wikidata": "Q7794239"}}]}