{"version": 0.6, "generator": "Overpass API 0.7.62.8 e802775f", "osm3s": {"timestamp_osm_base": "2025-11-07T12:59:10Z", "copyright": "The data included in this document is from www.openstreetmap.org. The data is made available under ODbL."}, "elements": [{"type": "node", "id": 48914051, "lat": 52.6624555, "lon": -8.6226622}, {"type": "node", "id": 218478001, "lat": 52.6638204, "lon": -8.6266819}, {"type": "node", "id": 218478131, "lat": 52.6617083, "lon": -8.622046, "tags": {"highway": "traffic_signals", "traffic_signals": "signal", "traffic_signals:direction": "forward"}}, {"type": "node", "id": 250559086, "lat": 52.6617372, "lon": -8.6234556}, {"type": "node", "id": 250587032, "lat": 52.6623172, "lon": -8.6228082, "tags": {"highway": "traffic_signals", "traffic_signals:direction": "forward"}}, {"type": "node", "id": 250587033, "lat": 52.6627002, "lon": -8.6224753}, {"type": "node", "id": 250634253, "lat": 52.6635256, "lon": -8.6259531}, {"type": "node", "id": 267681075, "lat": 52.6630997, "lon": -8.6248334}, {"type": "node", "id": 655368414, "lat": 52.6634521, "lon": -8.6257745}, {"type": "node", "id": 655378208, "lat": 52.6626639, "lon": -8.623691}, {"type": "node", "id": 1243870176, "lat": 52.6636401, "lon": -8.6262434}, {"type": "node", "id": 1885605046, "lat": 52.6623821, "lon": -8.6227405}, {"type": "node", "id": 3651291917, "lat": 52.6622013, "lon": -8.6226413}, {"type": "node", "id": 3658402088, "lat": 52.6619707, "lon": -8.6225607}, {"type": "node", "id": 3658402089, "lat": 52.6618821, "lon": -8.6227364}, {"type": "node", "id": 3658402092, "lat": 52.661808, "lon": -8.6228692}, {"type": "node", "id": 3658402093, "lat": 52.6618292, "lon": -8.6229067}, {"type": "node", "id": 3658402101, "lat": 52.6620904, "lon": -8.6229567}, {"type": "node", "id": 3658402102, "lat": 52.6620002, "lon": -8.6228334}, {"type": "node", "id": 3658402103, "lat": 52.6620801, "lon": -8.6226974}, {"type": "node", "id": 3658402104, "lat": 52.6621793, "lon": -8.6228186}, {"type": "node", "id": 3658402105, "lat": 52.6618984, "lon": -8.6229737}, {"type": "node", "id": 3658402106, "lat": 52.6618829, "lon": -8.6229418}, {"type": "node", "id": 3658402107, "lat": 52.6618597, "lon": -8.6229737}, {"type": "node", "id": 3664749880, "lat": 52.6619436, "lon": -8.6231178}, {"type": "node", "id": 3664749881, "lat": 52.661888, "lon": -8.6230078}, {"type": "node", "id": 4016399782, "lat": 52.662269, "lon": -8.6232052}, {"type": "node", "id": 4016399783, "lat": 52.6623016, "lon": -8.6232907}, {"type": "node", "id": 4016399784, "lat": 52.6623728, "lon": -8.6232084}, {"type": "node", "id": 4016399785, "lat": 52.6623395, "lon": -8.6231282}, {"type": "node", "id": 4016452911, "lat": 52.6623049, "lon": -8.6230418}, {"type": "node", "id": 4016452912, "lat": 52.6622343, "lon": -8.6231187}, {"type": "node", "id": 4030114194, "lat": 52.662242, "lon": -8.6230025, "tags": {"check_date": "2025-07-06", "male": "yes", "name": "New York Barbershop", "shop": "hairdresser"}}, {"type": "node", "id": 4030368572, "lat": 52.6620645, "lon": -8.6230739}, {"type": "node", "id": 4030368573, "lat": 52.6622195, "lon": -8.6228627, "tags": {"cycleway": "asl"}}, {"type": "node", "id": 4035714408, "lat": 52.6619443, "lon": -8.6229104}, {"type": "node", "id": 4035714409, "lat": 52.6620261, "lon": -8.6230326}, {"type": "node", "id": 4035714410, "lat": 52.661884, "lon": -8.6229972}, {"type": "node", "id": 4510766731, "lat": 52.6623965, "lon": -8.6226605}, {"type": "node", "id": 4510766752, "lat": 52.6623413, "lon": -8.6227226}, {"type": "node", "id": 4510766753, "lat": 52.6623069, "lon": -8.6226724}, {"type": "node", "id": 4510766754, "lat": 52.6623524, "lon": -8.6225869}, {"type": "node", "id": 4510766755, "lat": 52.6622724, "lon": -8.622626}, {"type": "node", "id": 4510766756, "lat": 52.6623176, "lon": -8.6225288}, {"type": "node", "id": 4512752986, "lat": 52.6620115, "lon": -8.6233686}, {"type": "node", "id": 4512752987, "lat": 52.6619682, "lon": -8.62327}, {"type": "node", "id": 4512753090, "lat": 52.6620687, "lon": -8.6231557}, {"type": "node", "id": 4512753091, "lat": 52.6621126, "lon": -8.6232603}, {"type": "node", "id": 4512753092, "lat": 52.6621057, "lon": -8.6232673}, {"type": "node", "id": 4512753093, "lat": 52.6621591, "lon": -8.623385}, {"type": "node", "id": 4512753094, "lat": 52.6621089, "lon": -8.6234468}, {"type": "node", "id": 4512753095, "lat": 52.6620561, "lon": -8.6233309}, {"type": "node", "id": 4512753096, "lat": 52.6620159, "lon": -8.6233754}, {"type": "node", "id": 4512753097, "lat": 52.6621132, "lon": -8.6231}, {"type": "node", "id": 4512753098, "lat": 52.6621613, "lon": -8.6232037}, {"type": "node", "id": 4512753099, "lat": 52.6621597, "lon": -8.6230363}, {"type": "node", "id": 4512753100, "lat": 52.6622494, "lon": -8.6231023}, {"type": "node", "id": 4512753101, "lat": 52.6622041, "lon": -8.6229814}, {"type": "node", "id": 4512753102, "lat": 52.6622553, "lon": -8.6229187}, {"type": "node", "id": 4512753103, "lat": 52.6622083, "lon": -8.6231505}, {"type": "node", "id": 4512753104, "lat": 52.6622238, "lon": -8.6231918}, {"type": "node", "id": 4512753105, "lat": 52.6622528, "lon": -8.6231619}, {"type": "node", "id": 4973309463, "lat": 52.6622283, "lon": -8.6225691}, {"type": "node", "id": 5004878835, "lat": 52.6619939, "lon": -8.6230258, "tags": {"addr:housenumber": "4", "addr:street": "Wickham Street", "beauty": "tanning", "check_date": "2025-07-06", "name": "Sun Time", "shop": "beauty"}}, {"type": "node", "id": 5005565529, "lat": 52.6623247, "lon": -8.6230272, "tags": {"highway": "street_lamp"}}, {"type": "node", "id": 5005565530, "lat": 52.6623139, "lon": -8.6229948, "tags": {"highway": "street_lamp"}}, {"type": "node", "id": 5016834827, "lat": 52.6621514, "lon": -8.6231231, "tags": {"check_date": "2024-01-28", "name": "M Cahill & Son", "shop": "tobacco"}}, {"type": "node", "id": 5016860888, "lat": 52.6620233, "lon": -8.6227077, "tags": {"name": "Irish Cancer Society", "shop": "charity"}}, {"type": "node", "id": 5016863960, "lat": 52.661989, "lon": -8.622775, "tags": {"level": "1", "name": "The Danes Bakery and Wedding Gallery", "shop": "bakery", "wheelchair": "no"}}, {"type": "node", "id": 7529722824, "lat": 52.6623847, "lon": -8.622818}, {"type": "node", "id": 7529926695, "lat": 52.6621248, "lon": -8.6242334}, {"type": "node", "id": 7529926696, "lat": 52.6620985, "lon": -8.6242611}, {"type": "node", "id": 7529926697, "lat": 52.6617916, "lon": -8.6234499}, {"type": "node", "id": 7529926698, "lat": 52.6622682, "lon": -8.6228743}, {"type": "node", "id": 7529926699, "lat": 52.6626027, "lon": -8.6237367}, {"type": "node", "id": 7529926700, "lat": 52.6624427, "lon": -8.6238965, "tags": {"barrier": "kerb", "kerb": "flush", "tactile_paving": "no"}}, {"type": "node", "id": 7529926710, "lat": 52.663136, "lon": -8.6249303, "tags": {"button_operated": "yes", "crossing:signals": "yes", "highway": "crossing", "tactile_paving": "yes", "traffic_signals:sound": "yes"}}, {"type": "node", "id": 7590468158, "lat": 52.6616973, "lon": -8.6222332}, {"type": "node", "id": 7590468159, "lat": 52.6617113, "lon": -8.6222169}, {"type": "node", "id": 7590468160, "lat": 52.661727, "lon": -8.6222156}, {"type": "node", "id": 7590468161, "lat": 52.662191, "lon": -8.6227945}, {"type": "node", "id": 7590468162, "lat": 52.6621968, "lon": -8.6228149}, {"type": "node", "id": 7590468163, "lat": 52.6621894, "lon": -8.6228366}, {"type": "node", "id": 7590468164, "lat": 52.662097, "lon": -8.6229725}, {"type": "node", "id": 7590468165, "lat": 52.6617146, "lon": -8.6233951}, {"type": "node", "id": 7590468166, "lat": 52.6615444, "lon": -8.6235609}, {"type": "node", "id": 7590468167, "lat": 52.6612975, "lon": -8.623791}, {"type": "node", "id": 7590468168, "lat": 52.6612337, "lon": -8.6238545}, {"type": "node", "id": 7590468169, "lat": 52.6611109, "lon": -8.6239469}, {"type": "node", "id": 7590468170, "lat": 52.6610977, "lon": -8.6239469}, {"type": "node", "id": 7590468171, "lat": 52.6610532, "lon": -8.6238191}, {"type": "node", "id": 7590468172, "lat": 52.6610499, "lon": -8.6237865}, {"type": "node", "id": 7590468173, "lat": 52.6610532, "lon": -8.6237661}, {"type": "node", "id": 7590468174, "lat": 52.6611925, "lon": -8.6234467}, {"type": "node", "id": 8457775146, "lat": 52.6616597, "lon": -8.6234486}, {"type": "node", "id": 10188942310, "lat": 52.6622403, "lon": -8.6228511, "tags": {"crossing": "unmarked", "crossing:markings": "no", "highway": "crossing", "tactile_paving": "yes"}}, {"type": "node", "id": 10188942311, "lat": 52.6623312, "lon": -8.6228439, "tags": {"crossing": "unmarked", "crossing:markings": "no", "highway": "crossing", "tactile_paving": "yes"}}, {"type": "node", "id": 10856048306, "lat": 52.6623189, "lon": -8.6230966, "tags": {"addr:housenumber": "38", "addr:street": "William Street", "amenity": "cafe", "check_date": "2025-07-06", "name": "Pink Bee", "payment:cash": "yes", "payment:credit_cards": "yes", "payment:debit_cards": "yes", "wheelchair": "yes"}}, {"type": "node", "id": 12218717351, "lat": 52.6637874, "lon": -8.6266069, "tags": {"crossing:signals": "yes", "highway": "crossing"}}, {"type": "node", "id": 13180689674, "lat": 52.6620129, "lon": -8.6232192}, {"type": "way", "id": 22716471, "nodes": [218478001, 12218717351, 1243870176, 250634253, 655368414, 7529926710, 267681075, 655378208, 10188942311, 250587032], "tags": {"highway": "secondary", "lanes": "2", "maxspeed": "50", "name": "William Street", "name:ga": "Sr\u00e1id Liam", "oneway": "yes", "ref": "R527", "sidewalk:both": "separate", "surface": "asphalt", "wikidata": "Q8018908"}}, {"type": "way", "id": 23175557, "nodes": [250587032, 1885605046, 48914051, 250587033], "tags": {"cycleway:both": "no", "highway": "unclassified", "lane_markings": "no", "lanes": "1", "lit": "yes", "logainm:ref": "1404732", "logainm:url": "https://www.logainm.ie/1404732.aspx", "name": "High Street", "name:en": "High Street", "name:ga": "An tSr\u00e1id \u00c1rd", "oneway": "yes", "ref": "L10313", "sidewalk:left": "separate", "sidewalk:right": "yes", "source": "GPS / names: street sign", "surface": "asphalt"}}, {"type": "way", "id": 24596401, "nodes": [250587032, 3651291917, 218478131], "tags": {"highway": "secondary", "lanes": "2", "maxspeed": "50", "name": "Upper William Street", "name:ga": "Sr\u00e1id Liam Uachtarach", "oneway": "yes", "ref": "R527", "sidewalk:left": "yes", "sidewalk:right": "separate", "surface": "asphalt"}}, {"type": "way", "id": 360611642, "nodes": [3651291917, 4973309463], "tags": {"highway": "service", "name": "Pikes Row", "name:ga": "L\u00e1na na hamharclainne", "source": "GPS / street sign"}}, {"type": "way", "id": 361353211, "nodes": [3658402101, 3658402102, 3658402103, 3658402104, 3658402101], "tags": {"brand": "BoyleSports", "brand:wikidata": "Q56760280", "brand:wikipedia": "en:BoyleSports", "building": "yes", "name": "BoyleSports", "operator": "BoyleSports", "shop": "bookmaker", "website": "https://www.boylesports.com/"}}, {"type": "way", "id": 361353212, "nodes": [3658402102, 4035714408, 3658402105, 3658402106, 3658402107, 3658402093, 3658402092, 3658402089, 3658402088, 3658402103, 3658402102], "tags": {"building": "commercial"}}, {"type": "way", "id": 398905192, "nodes": [4016399782, 4016399783, 4016399784, 4016399785, 4016399782], "tags": {"amenity": "casino", "building": "yes", "check_date": "2025-07-06", "min_age": "21", "name": "Roma", "opening_hours": "08:30-24:00", "wheelchair": "no"}}, {"type": "way", "id": 398910426, "nodes": [4016399785, 4016452911, 4512753100, 4016452912, 4512753103, 4512753104, 4512753105, 4016399782, 4016399785], "tags": {"addr:city": "Limerick", "addr:street": "William Street", "building": "retail", "check_date": "2025-07-06", "dispensing": "yes", "disused:amenity": "pharmacy", "drive_through": "no", "healthcare": "pharmacy", "name": "McKenna's Allcare Pharmacy"}}, {"type": "way", "id": 401115725, "nodes": [4035714408, 4035714409, 3664749880, 3664749881, 4035714410, 3658402105, 4035714408], "tags": {"addr:city": "Limerick", "addr:housenumber": "4", "addr:street": "Wickham Street", "building": "retail"}}, {"type": "way", "id": 401115726, "nodes": [4035714409, 3658402101, 3658402102, 4035714408, 4035714409], "tags": {"building": "retail"}}, {"type": "way", "id": 454524999, "nodes": [4510766731, 4510766752, 4510766753, 4510766754, 4510766731], "tags": {"building": "retail"}}, {"type": "way", "id": 454525000, "nodes": [4510766754, 4510766753, 4510766755, 4510766756, 4510766754], "tags": {"addr:city": "Limerick", "addr:housenumber": "1", "addr:street": "Upper William Street", "building": "yes"}}, {"type": "way", "id": 454746808, "nodes": [13180689674, 4512753090, 4512753091, 4512753092, 4512753093, 4512753094, 4512753095, 13180689674], "tags": {"building": "retail"}}, {"type": "way", "id": 454746809, "nodes": [4512753090, 4512753097, 4512753098, 4512753091, 4512753090], "tags": {"building": "yes"}}, {"type": "way", "id": 454746810, "nodes": [4512753103, 4512753098, 4512753097, 4512753099, 4512753103], "tags": {"addr:city": "Limerick", "addr:housenumber": "47", "addr:street": "Wickham Street", "building": "yes", "check_date": "2024-01-28", "name": "M. CAHILL & SON", "shop": "tobacco"}}, {"type": "way", "id": 454746811, "nodes": [4512753100, 4016452912, 4512753103, 4512753099, 4512753101, 4512753100], "tags": {"addr:city": "Limerick", "addr:country": "IE", "addr:county": "Limerick", "addr:housenumber": "48", "addr:postcode": "V94 F300", "addr:street": "Wickham Street", "amenity": "pub", "building": "retail", "check_date": "2025-07-06", "contact:facebook": "https://www.facebook.com/Patsy-Flannerys-Bar-Wickham-St-1755380694487519", "name": "Patsy Flannery\u2019s", "opening_hours": "10:30-00:30", "phone": "+35361415894", "smoking": "outside"}}, {"type": "way", "id": 454746812, "nodes": [4016452911, 4512753100, 4512753101, 4512753102, 4016452911], "tags": {"building": "retail"}}, {"type": "way", "id": 805092182, "nodes": [7529926695, 7529926696, 7529926697, 7529926698, 7529926699, 7529926700], "tags": {"footway": "sidewalk", "highway": "footway", "lit": "yes", "surface": "paving_stones"}}, {"type": "way", "id": 812663411, "nodes": [7590468158, 7590468159, 7590468160, 7590468161, 7590468162, 7590468163, 7590468164, 7590468165, 8457775146, 7590468166, 7590468167, 7590468168, 7590468169, 7590468170, 7590468171, 7590468172, 7590468173, 7590468174, 7590468158], "tags": {"footway": "sidewalk", "highway": "footway", "lit": "yes", "surface": "paving_stones"}}, {"type": "way", "id": 927666952, "nodes": [250559086, 4030368572, 4030368573, 10188942310, 250587032], "tags": {"cycleway:left": "lane", "highway": "secondary", "lanes": "1", "maxspeed": "50", "name": "Wickham Street", "name:ga": "Sr\u00e1id Wickham", "oneway": "yes", "ref": "R858", "sidewalk:both": "separate", "source": "names: street sign", "surface": "asphalt"}}, {"type": "way", "id": 1113716145, "nodes": [7529926698, 10188942310, 7590468162], "tags": {"crossing": "unmarked", "crossing:markings": "no", "footway": "crossing", "highway": "footway", "surface": "asphalt"}}, {"type": "way", "id": 1113716146, "nodes": [7529722824, 10188942311, 7529926698], "tags": {"crossing": "unmarked", "crossing:markings": "no", "footway": "crossing", "highway": "footway", "surface": "asphalt"}}, {"type": "way", "id": 1434067026, "nodes": [4512753095, 4512753096, 4512752986, 4512752987, 13180689674, 4512753095], "tags": {"building": "retail"}}]}