{"version": 0.6, "generator": "Overpass API 0.7.62.8 e802775f", "osm3s": {"timestamp_osm_base": "2025-11-08T07:29:27Z", "copyright": "The data included in this document is from www.openstreetmap.org. The data is made available under ODbL."}, "elements": [{"type": "node", "id": 250559096, "lat": 52.6629589, "lon": -8.6296316, "tags": {"highway": "traffic_signals", "traffic_signals": "signal", "traffic_signals:direction": "forward"}}, {"type": "node", "id": 250559100, "lat": 52.6624067, "lon": -8.6282229}, {"type": "node", "id": 595653990, "lat": 52.6622292, "lon": -8.6277797}, {"type": "node", "id": 1022803438, "lat": 52.6627081, "lon": -8.6283473}, {"type": "node", "id": 1022804363, "lat": 52.6627229, "lon": -8.6284652}, {"type": "node", "id": 1022804960, "lat": 52.6626419, "lon": -8.6281848}, {"type": "node", "id": 1022805088, "lat": 52.6626851, "lon": -8.6283695}, {"type": "node", "id": 1237866279, "lat": 52.6624576, "lon": -8.6286415}, {"type": "node", "id": 1237866281, "lat": 52.662373, "lon": -8.6301008}, {"type": "node", "id": 1237866285, "lat": 52.6624663, "lon": -8.6286325}, {"type": "node", "id": 1237866287, "lat": 52.662389, "lon": -8.6284318}, {"type": "node", "id": 1237866294, "lat": 52.6622343, "lon": -8.6288649}, {"type": "node", "id": 1237866297, "lat": 52.6624593, "lon": -8.6294491}, {"type": "node", "id": 1237866300, "lat": 52.6625455, "lon": -8.6288057}, {"type": "node", "id": 1237866303, "lat": 52.662528, "lon": -8.6288241}, {"type": "node", "id": 1237866304, "lat": 52.6628514, "lon": -8.6296}, {"type": "node", "id": 1244169031, "lat": 52.662392, "lon": -8.6292757}, {"type": "node", "id": 1244169038, "lat": 52.6624333, "lon": -8.6293873}, {"type": "node", "id": 1244169044, "lat": 52.6624052, "lon": -8.6295022}, {"type": "node", "id": 1244169045, "lat": 52.6622183, "lon": -8.6296902}, {"type": "node", "id": 1307321342, "lat": 52.662777, "lon": -8.6291462}, {"type": "node", "id": 1307321344, "lat": 52.6626137, "lon": -8.6287417}, {"type": "node", "id": 1307321345, "lat": 52.6629972, "lon": -8.6283519}, {"type": "node", "id": 1347765366, "lat": 52.6618847, "lon": -8.6287608}, {"type": "node", "id": 1447007384, "lat": 52.6623256, "lon": -8.6285297, "tags": {"check_date": "2024-09-06", "name": "Savins", "opening_hours": "Mo-Sa 09:30-17:30", "shop": "musical_instrument", "wheelchair": "yes"}}, {"type": "node", "id": 1460573001, "lat": 52.6618648, "lon": -8.6268747}, {"type": "node", "id": 2989268240, "lat": 52.6624317, "lon": -8.6286447, "tags": {"check_date": "2024-09-06", "name": "Savins", "shop": "musical_instrument", "wheelchair": "yes"}}, {"type": "node", "id": 4030104117, "lat": 52.6622858, "lon": -8.6286798, "tags": {"check_date": "2025-01-16", "name": "The George", "tourism": "hotel"}}, {"type": "node", "id": 4329130307, "lat": 52.6632764, "lon": -8.6274591, "tags": {"barrier": "kerb", "bollard": "rising", "kerb": "flush", "tactile_paving": "no"}}, {"type": "node", "id": 4523146195, "lat": 52.6625934, "lon": -8.6284687}, {"type": "node", "id": 4523146196, "lat": 52.6626515, "lon": -8.6284059}, {"type": "node", "id": 4523146197, "lat": 52.6625274, "lon": -8.6283029}, {"type": "node", "id": 4523146198, "lat": 52.6625855, "lon": -8.6282401}, {"type": "node", "id": 4523146202, "lat": 52.6626273, "lon": -8.6284949, "tags": {"addr:street": "Shannon Street", "amenity": "pharmacy", "dispensing": "yes", "drive_through": "no", "healthcare": "pharmacy", "name": "Hanley's Chemist"}}, {"type": "node", "id": 4543807889, "lat": 52.6626203, "lon": -8.6282491, "tags": {"addr:city": "Limerick", "addr:street": "O'Connell Street", "amenity": "pharmacy", "check_date": "2024-09-06", "dispensing": "yes", "drive_through": "no", "healthcare": "pharmacy", "name": "O' Sullivan's Pharmacy", "opening_hours": "10:00-23:00", "payment:cash": "yes", "payment:credit_cards": "yes", "payment:debit_cards": "yes", "phone": "+353 61 413 808", "wheelchair": "yes"}}, {"type": "node", "id": 4991084910, "lat": 52.6627596, "lon": -8.6285616}, {"type": "node", "id": 4991084911, "lat": 52.6626687, "lon": -8.6286539}, {"type": "node", "id": 4991084912, "lat": 52.6626313, "lon": -8.6285636}, {"type": "node", "id": 5003948084, "lat": 52.662415, "lon": -8.6285826, "tags": {"check_date": "2024-09-06", "email": "info@waxworks.ie", "level": "1", "name": "Wax Works", "phone": "+353 61 400 066", "shop": "beauty", "website": "https://waxworks.ie", "wheelchair": "no"}}, {"type": "node", "id": 5003948393, "lat": 52.6626417, "lon": -8.6282291, "tags": {"addr:city": "Limerick", "addr:street": "O'Connell Street", "check_date": "2024-09-06", "level": "1", "name": "Irish Society for the Prevention of Cruelty to Children", "office": "ngo", "operator": "Irish Society for the Prevention of Cruelty to Children CLG", "operator:website": "https://www.ispcc.ie/", "short_name": "ISPCC"}}, {"type": "node", "id": 7529723008, "lat": 52.6626544, "lon": -8.6287001}, {"type": "node", "id": 7529723009, "lat": 52.6626694, "lon": -8.6287371, "tags": {"barrier": "kerb", "kerb": "flush", "tactile_paving": "no"}}, {"type": "node", "id": 7529723010, "lat": 52.6626391, "lon": -8.6286628, "tags": {"barrier": "kerb", "kerb": "flush", "tactile_paving": "no"}}, {"type": "node", "id": 7529723011, "lat": 52.6625086, "lon": -8.628332}, {"type": "node", "id": 7529723012, "lat": 52.6625065, "lon": -8.6282883}, {"type": "node", "id": 7529723013, "lat": 52.6625149, "lon": -8.6282499}, {"type": "node", "id": 7529926794, "lat": 52.6623125, "lon": -8.6281739}, {"type": "node", "id": 7529926795, "lat": 52.6618441, "lon": -8.6269965}, {"type": "node", "id": 7529926796, "lat": 52.6615522, "lon": -8.6272951, "tags": {"barrier": "kerb", "kerb": "flush", "tactile_paving": "no"}}, {"type": "node", "id": 7529926803, "lat": 52.6619756, "lon": -8.6285373}, {"type": "node", "id": 7529926808, "lat": 52.6628631, "lon": -8.6296296}, {"type": "node", "id": 7529926809, "lat": 52.6628631, "lon": -8.6295672}, {"type": "node", "id": 7529926810, "lat": 52.6624079, "lon": -8.6284122}, {"type": "node", "id": 7529926811, "lat": 52.6623794, "lon": -8.6283891}, {"type": "node", "id": 7529926812, "lat": 52.6618968, "lon": -8.6289022}, {"type": "node", "id": 7529926813, "lat": 52.6618941, "lon": -8.6289495}, {"type": "node", "id": 7529926814, "lat": 52.6621675, "lon": -8.6296437, "tags": {"barrier": "kerb", "kerb": "flush", "tactile_paving": "no"}}, {"type": "node", "id": 7529926815, "lat": 52.6623737, "lon": -8.6301327}, {"type": "node", "id": 7529926816, "lat": 52.6623554, "lon": -8.6301267}, {"type": "node", "id": 7529926817, "lat": 52.6621845, "lon": -8.629692, "tags": {"barrier": "kerb", "kerb": "flush", "tactile_paving": "no"}}, {"type": "node", "id": 7530203948, "lat": 52.6622734, "lon": -8.6285179}, {"type": "node", "id": 7530203949, "lat": 52.662277, "lon": -8.6284903}, {"type": "node", "id": 7530203950, "lat": 52.6619471, "lon": -8.6288605}, {"type": "node", "id": 7530203951, "lat": 52.6619262, "lon": -8.6288621}, {"type": "node", "id": 7530203952, "lat": 52.6625348, "lon": -8.6282292}, {"type": "node", "id": 7530203953, "lat": 52.6624963, "lon": -8.6281274, "tags": {"crossing": "marked", "crossing:island": "no", "crossing:markings": "lines", "highway": "crossing", "tactile_paving": "yes"}}, {"type": "node", "id": 7530203954, "lat": 52.6624612, "lon": -8.6280347}, {"type": "node", "id": 11411777982, "lat": 52.662373, "lon": -8.628477, "tags": {"amenity": "cafe", "check_date": "2024-09-06", "name": "Guji", "opening_hours": "Mo-Fr 07:00-17:00; Sa 08:00-17:00; Su 09:00-17:00", "payment:cash": "yes", "payment:credit_cards": "yes", "payment:debit_cards": "yes", "wheelchair": "limited"}}, {"type": "node", "id": 12328666505, "lat": 52.6618272, "lon": -8.6270138}, {"type": "node", "id": 12328666509, "lat": 52.6619031, "lon": -8.6269726, "tags": {"crossing:markings": "yes", "crossing:signals": "no", "highway": "crossing", "tactile_paving": "yes"}}, {"type": "node", "id": 12328666510, "lat": 52.6618538, "lon": -8.627021}, {"type": "node", "id": 12646891695, "lat": 52.6624409, "lon": -8.6281865}, {"type": "node", "id": 12646912853, "lat": 52.662339, "lon": -8.6280539, "tags": {"highway": "traffic_signals", "traffic_signals:direction": "forward"}}, {"type": "node", "id": 12646913219, "lat": 52.6623559, "lon": -8.6282753}, {"type": "node", "id": 12656702949, "lat": 52.661838, "lon": -8.6288097}, {"type": "node", "id": 12656803000, "lat": 52.6623565, "lon": -8.6280978, "tags": {"button_operated": "yes", "crossing": "traffic_signals", "crossing:island": "no", "crossing:markings": "lines", "highway": "crossing", "tactile_paving": "yes", "traffic_calming": "table", "traffic_signals:sound": "yes"}}, {"type": "node", "id": 12656813101, "lat": 52.6622997, "lon": -8.6283332, "tags": {"bicycle": "yes", "highway": "traffic_signals", "traffic_signals:direction": "backward"}}, {"type": "node", "id": 12656813102, "lat": 52.6623286, "lon": -8.6283035, "tags": {"bicycle": "yes", "button_operated": "yes", "crossing": "traffic_signals", "crossing:island": "no", "crossing:markings": "lines", "crossing_ref": "toucan", "highway": "crossing", "tactile_paving": "yes", "traffic_signals:sound": "yes"}}, {"type": "node", "id": 12656813103, "lat": 52.6624543, "lon": -8.6283425, "tags": {"button_operated": "yes", "crossing": "traffic_signals", "crossing:island": "no", "crossing:markings": "lines", "crossing_ref": "pelican", "highway": "crossing", "tactile_paving": "yes", "traffic_signals:sound": "yes"}}, {"type": "node", "id": 12897331579, "lat": 52.6623962, "lon": -8.6284027}, {"type": "node", "id": 12897331580, "lat": 52.6623031, "lon": -8.6281502}, {"type": "node", "id": 12897331581, "lat": 52.6623664, "lon": -8.6284019}, {"type": "node", "id": 12897331582, "lat": 52.6622886, "lon": -8.6281996}, {"type": "node", "id": 13169503979, "lat": 52.6622418, "lon": -8.6288845}, {"type": "node", "id": 13169503980, "lat": 52.6621662, "lon": -8.628665}, {"type": "way", "id": 23177795, "nodes": [250559100, 12656813103, 1307321344, 1307321342, 250559096], "tags": {"alt_name:ga": "Sr\u00e1id Na Sionainne", "highway": "secondary", "lanes": "2", "maxspeed": "50", "name": "Shannon Street", "name:ga": "Sr\u00e1id na Sionna", "oneway": "yes", "ref": "R527", "source": "names: two street signs", "surface": "asphalt", "turn:lanes": "through;right|right"}}, {"type": "way", "id": 107755248, "nodes": [1237866294, 13169503979, 1244169031, 1244169038, 1237866297, 1244169044, 1244169045, 1237866281, 1237866304, 1237866300, 1237866303, 1237866279, 1237866285, 1237866287, 13169503980, 1237866294], "tags": {"building": "yes"}}, {"type": "way", "id": 115804259, "nodes": [1307321344, 7529723008, 1307321345], "tags": {"highway": "service"}}, {"type": "way", "id": 400460290, "nodes": [1022804363, 4991084912, 4523146195, 4523146196, 1022805088, 1022804363], "tags": {"building": "commercial"}}, {"type": "way", "id": 455939343, "nodes": [4523146196, 4523146195, 4523146197, 4523146198, 4523146196], "tags": {"building": "yes", "check_date": "2024-09-06", "name": "Leavys Shoes", "shop": "shoes"}}, {"type": "way", "id": 455939345, "nodes": [1022804960, 1022803438, 1022805088, 4523146196, 4523146198, 1022804960], "tags": {"building": "commercial"}}, {"type": "way", "id": 510001887, "nodes": [1022804363, 4991084910, 4991084911, 4991084912, 1022804363], "tags": {"addr:city": "Limerick", "addr:country": "IE", "addr:county": "Limerick", "addr:housenumber": "19", "addr:postcode": "V94 XV27", "addr:street": "Shannon Street", "amenity": "pub", "building": "retail", "name": "Flannery\u2019s", "wheelchair": "no"}}, {"type": "way", "id": 603474148, "nodes": [1460573001, 12328666509, 595653990, 12646912853, 12656803000, 250559100], "tags": {"highway": "secondary", "lanes": "2", "maxspeed": "50", "name": "Roches Street", "name:ga": "Sr\u00e1id an R\u00f3istigh", "oneway": "yes", "ref": "R527", "surface": "asphalt"}}, {"type": "way", "id": 729460036, "nodes": [12646913219, 12656813102, 12656813101, 1347765366, 12656702949], "tags": {"cycleway": "track", "cycleway:right:oneway": "-1", "highway": "secondary", "lanes": "2", "logainm:ref": "1404871", "logainm:url": "https://www.logainm.ie/1404871.aspx", "maxspeed": "50", "name": "O'Connell Street", "name:en": "O'Connell Street", "name:ga": "Sr\u00e1id U\u00ed Chonaill", "oneway": "yes", "oneway:bicycle": "no", "ref": "R526", "surface": "asphalt", "wikidata": "Q7071715"}}, {"type": "way", "id": 805015449, "nodes": [7529723009, 7529723008, 7529723010], "tags": {"footway": "crossing", "highway": "footway", "lit": "yes", "surface": "asphalt"}}, {"type": "way", "id": 805015451, "nodes": [7529723010, 7529723011, 7529723012, 7529723013, 7530203952, 4329130307], "tags": {"footway": "sidewalk", "highway": "footway", "lit": "yes", "surface": "asphalt"}}, {"type": "way", "id": 805092222, "nodes": [7529926803, 12897331582, 7529926794, 12897331580, 12328666510, 7529926795, 12328666505, 7529926796], "tags": {"footway": "sidewalk", "highway": "footway"}}, {"type": "way", "id": 805092228, "nodes": [7529926817, 7529926816, 7529926815, 7529926808, 7529926809, 7529926810, 12897331579, 7529926811, 12897331581, 7530203949, 7530203948, 7530203950, 7530203951, 7529926812, 7529926813, 7529926814], "tags": {"footway": "sidewalk", "highway": "footway", "lit": "yes", "surface": "paving_stones"}}, {"type": "way", "id": 805150425, "nodes": [7530203952, 7530203953, 7530203954], "tags": {"footway": "crossing", "highway": "footway", "lit": "yes", "surface": "asphalt"}}, {"type": "way", "id": 1365663382, "nodes": [250559100, 12646913219], "tags": {"cycleway": "lane", "cycleway:right:oneway": "-1", "highway": "secondary", "lanes": "2", "logainm:ref": "1404871", "logainm:url": "https://www.logainm.ie/1404871.aspx", "maxspeed": "50", "name": "O'Connell Street", "name:en": "O'Connell Street", "name:ga": "Sr\u00e1id U\u00ed Chonaill", "oneway": "yes", "oneway:bicycle": "no", "ref": "R526", "surface": "asphalt", "wikidata": "Q7071715"}}, {"type": "way", "id": 1365664063, "nodes": [12646891695, 250559100], "tags": {"cycleway": "lane", "cycleway:right:oneway": "-1", "highway": "secondary", "lanes": "2", "logainm:ref": "1404871", "logainm:url": "https://www.logainm.ie/1404871.aspx", "maxspeed": "50", "name": "O'Connell Street", "name:en": "O'Connell Street", "name:ga": "Sr\u00e1id U\u00ed Chonaill", "oneway": "yes", "oneway:bicycle": "no", "ref": "R526", "surface": "asphalt", "wikidata": "Q7071715"}}, {"type": "way", "id": 1393305572, "nodes": [7529723012, 12656813103, 12897331579], "tags": {"highway": "footway", "lit": "yes", "surface": "asphalt"}}, {"type": "way", "id": 1393305574, "nodes": [12897331581, 12656813102, 12897331582], "tags": {"highway": "footway", "lit": "yes", "surface": "asphalt"}}]}