{"version": 0.6, "generator": "Overpass API 0.7.62.8 e802775f", "osm3s": {"timestamp_osm_base": "2025-11-10T04:57:39Z", "copyright": "The data included in this document is from www.openstreetmap.org. The data is made available under ODbL."}, "elements": [{"type": "node", "id": 6588444641, "lat": 52.6657113, "lon": -8.5426467}, {"type": "node", "id": 6588444649, "lat": 52.6662611, "lon": -8.5422766}, {"type": "node", "id": 6588444650, "lat": 52.6657037, "lon": -8.5425247}, {"type": "node", "id": 6588444651, "lat": 52.6658451, "lon": -8.5421244, "tags": {"highway": "turning_circle"}}, {"type": "node", "id": 6588444652, "lat": 52.6659426, "lon": -8.5422226}, {"type": "node", "id": 6588444653, "lat": 52.6661334, "lon": -8.5422949}, {"type": "node", "id": 6588444654, "lat": 52.6665587, "lon": -8.5421261, "tags": {"direction": "both", "surface": "asphalt", "traffic_calming": "hump"}}, {"type": "node", "id": 6588444656, "lat": 52.6666626, "lon": -8.5420598}, {"type": "node", "id": 6588444657, "lat": 52.6668215, "lon": -8.541954}, {"type": "node", "id": 8864215793, "lat": 52.6655298, "lon": -8.5422045}, {"type": "node", "id": 8864215794, "lat": 52.6656169, "lon": -8.5423455}, {"type": "node", "id": 8864215795, "lat": 52.6655344, "lon": -8.5422629}, {"type": "node", "id": 8864215796, "lat": 52.6655489, "lon": -8.5422236}, {"type": "node", "id": 8864215797, "lat": 52.6655914, "lon": -8.5421082}, {"type": "node", "id": 8864215798, "lat": 52.6656739, "lon": -8.5421908}, {"type": "node", "id": 8864215799, "lat": 52.6656454, "lon": -8.5422682}, {"type": "node", "id": 8864215800, "lat": 52.6655439, "lon": -8.5421665}, {"type": "node", "id": 8864215801, "lat": 52.665548, "lon": -8.5421551}, {"type": "node", "id": 8864215802, "lat": 52.6655582, "lon": -8.5421274}, {"type": "node", "id": 8864215803, "lat": 52.6655773, "lon": -8.5421465}, {"type": "node", "id": 8864215826, "lat": 52.6656925, "lon": -8.5421621}, {"type": "node", "id": 8864215827, "lat": 52.6655971, "lon": -8.5420676}, {"type": "node", "id": 8864215828, "lat": 52.665719, "lon": -8.5420893}, {"type": "node", "id": 8864215829, "lat": 52.6656237, "lon": -8.5419949}, {"type": "node", "id": 8864215830, "lat": 52.6657455, "lon": -8.5420166}, {"type": "node", "id": 8864215831, "lat": 52.6656502, "lon": -8.5419221}, {"type": "node", "id": 8864215833, "lat": 52.665772, "lon": -8.5419438}, {"type": "node", "id": 8864215834, "lat": 52.6656767, "lon": -8.5418494}, {"type": "node", "id": 8864215838, "lat": 52.6655254, "lon": -8.542599}, {"type": "node", "id": 8864215839, "lat": 52.6654301, "lon": -8.5425045}, {"type": "node", "id": 8864215840, "lat": 52.6655519, "lon": -8.5425262}, {"type": "node", "id": 8864215841, "lat": 52.6654566, "lon": -8.5424318}, {"type": "node", "id": 8864215842, "lat": 52.6656049, "lon": -8.5423807}, {"type": "node", "id": 8864215843, "lat": 52.6655784, "lon": -8.5424535}, {"type": "node", "id": 8864215844, "lat": 52.6654831, "lon": -8.542359}, {"type": "node", "id": 8864215845, "lat": 52.6655096, "lon": -8.5422863}, {"type": "node", "id": 8864215997, "lat": 52.6660443, "lon": -8.5422832, "tags": {"direction": "both", "surface": "asphalt", "traffic_calming": "hump"}}, {"type": "node", "id": 12123185515, "lat": 52.6658841, "lon": -8.542014}, {"type": "node", "id": 12123185518, "lat": 52.6667818, "lon": -8.5419804, "tags": {"direction": "forward", "highway": "give_way"}}, {"type": "way", "id": 701547044, "nodes": [6588444651, 6588444652, 8864215997, 6588444653, 6588444649, 6588444654, 6588444656, 12123185518, 6588444657], "tags": {"cycleway:both": "no", "highway": "residential", "lane_markings": "no", "lanes": "2", "lit": "yes", "name": "Castlebrook Green", "sidewalk": "both", "surface": "asphalt"}}, {"type": "way", "id": 958005109, "nodes": [8864215796, 8864215795, 8864215794, 8864215799, 8864215800, 8864215793, 8864215796], "tags": {"addr:city": "Limerick", "addr:country": "IE", "addr:street": "Castlebrook Green", "addr:suburb": "Annacotty", "building": "house", "roof:shape": "gabled"}}, {"type": "way", "id": 958005110, "nodes": [8864215803, 8864215802, 8864215801, 8864215800, 8864215799, 8864215798, 8864215797, 8864215803], "tags": {"addr:city": "Limerick", "addr:country": "IE", "addr:street": "Castlebrook Green", "addr:suburb": "Annacotty", "building": "house", "roof:shape": "gabled"}}, {"type": "way", "id": 958005115, "nodes": [8864215829, 8864215827, 8864215826, 8864215828, 8864215829], "tags": {"addr:city": "Limerick", "addr:country": "IE", "addr:street": "Castlebrook Green", "addr:suburb": "Annacotty", "building": "house", "roof:shape": "gabled"}}, {"type": "way", "id": 958005116, "nodes": [8864215831, 8864215829, 8864215828, 8864215830, 8864215831], "tags": {"addr:city": "Limerick", "addr:country": "IE", "addr:street": "Castlebrook Green", "addr:suburb": "Annacotty", "building": "house", "roof:shape": "gabled"}}, {"type": "way", "id": 958005117, "nodes": [8864215834, 8864215831, 8864215830, 8864215833, 8864215834], "tags": {"addr:city": "Limerick", "addr:country": "IE", "addr:street": "Castlebrook Green", "addr:suburb": "Annacotty", "building": "house", "roof:shape": "gabled"}}, {"type": "way", "id": 958005120, "nodes": [8864215841, 8864215839, 8864215838, 8864215840, 8864215841], "tags": {"addr:city": "Limerick", "addr:country": "IE", "addr:street": "Castlebrook Green", "addr:suburb": "Annacotty", "building": "house", "roof:shape": "gabled"}}, {"type": "way", "id": 958005121, "nodes": [8864215844, 8864215841, 8864215840, 8864215843, 8864215844], "tags": {"addr:city": "Limerick", "addr:country": "IE", "addr:street": "Castlebrook Green", "addr:suburb": "Annacotty", "building": "house", "roof:shape": "gabled"}}, {"type": "way", "id": 958005122, "nodes": [8864215845, 8864215844, 8864215843, 8864215842, 8864215845], "tags": {"addr:city": "Limerick", "addr:country": "IE", "addr:street": "Castlebrook Green", "addr:suburb": "Annacotty", "building": "house", "roof:shape": "gabled"}}, {"type": "way", "id": 1309149192, "nodes": [6588444641, 6588444650, 6588444651, 12123185515], "tags": {"cycleway:both": "no", "highway": "residential", "lane_markings": "no", "lanes": "2", "lit": "yes", "name": "Castlebrook Green", "sidewalk": "both", "surface": "asphalt"}}]}