{"version": 0.6, "generator": "Overpass API 0.7.62.8 e802775f", "osm3s": {"timestamp_osm_base": "2025-11-10T05:18:13Z", "copyright": "The data included in this document is from www.openstreetmap.org. The data is made available under ODbL."}, "elements": [{"type": "node", "id": 6588444633, "lat": 52.6670137, "lon": -8.5430299}, {"type": "node", "id": 6588444634, "lat": 52.6669338, "lon": -8.543167}, {"type": "node", "id": 6588444635, "lat": 52.6668093, "lon": -8.5435479}, {"type": "node", "id": 6588444636, "lat": 52.6666157, "lon": -8.5436328}, {"type": "node", "id": 6588444637, "lat": 52.6665426, "lon": -8.5435693}, {"type": "node", "id": 6588444638, "lat": 52.6663311, "lon": -8.5433816}, {"type": "node", "id": 6588444639, "lat": 52.6660806, "lon": -8.5430195}, {"type": "node", "id": 6588444640, "lat": 52.6659538, "lon": -8.5428398, "tags": {"direction": "both", "surface": "asphalt", "traffic_calming": "hump"}}, {"type": "node", "id": 6588444641, "lat": 52.6657113, "lon": -8.5426467}, {"type": "node", "id": 6588444642, "lat": 52.6655438, "lon": -8.542813, "tags": {"highway": "turning_circle"}}, {"type": "node", "id": 6588444644, "lat": 52.6661636, "lon": -8.5431403}, {"type": "node", "id": 7590561756, "lat": 52.6662986, "lon": -8.544292}, {"type": "node", "id": 8864215676, "lat": 52.6666062, "lon": -8.5432628}, {"type": "node", "id": 8864215677, "lat": 52.666589, "lon": -8.5432457}, {"type": "node", "id": 8864215678, "lat": 52.6666077, "lon": -8.5431949}, {"type": "node", "id": 8864215679, "lat": 52.6666264, "lon": -8.5431442}, {"type": "node", "id": 8864215680, "lat": 52.6666435, "lon": -8.5431613}, {"type": "node", "id": 8864215681, "lat": 52.6667049, "lon": -8.5432922}, {"type": "node", "id": 8864215682, "lat": 52.6666676, "lon": -8.5433933}, {"type": "node", "id": 8864215683, "lat": 52.6667421, "lon": -8.5431911}, {"type": "node", "id": 8864215684, "lat": 52.6666621, "lon": -8.5431109}, {"type": "node", "id": 8864215685, "lat": 52.6665876, "lon": -8.5433131}, {"type": "node", "id": 8864215686, "lat": 52.6665732, "lon": -8.5434468}, {"type": "node", "id": 8864215687, "lat": 52.6666054, "lon": -8.5434791}, {"type": "node", "id": 8864215688, "lat": 52.6665602, "lon": -8.543482}, {"type": "node", "id": 8864215689, "lat": 52.6665925, "lon": -8.5435143}, {"type": "node", "id": 8864215690, "lat": 52.6665793, "lon": -8.5433375}, {"type": "node", "id": 8864215691, "lat": 52.666666, "lon": -8.5434244}, {"type": "node", "id": 8864215692, "lat": 52.666635, "lon": -8.5435087}, {"type": "node", "id": 8864215693, "lat": 52.6665482, "lon": -8.5434218}, {"type": "node", "id": 8864215876, "lat": 52.6665239, "lon": -8.5431281}, {"type": "node", "id": 8864215877, "lat": 52.6664671, "lon": -8.5432856}, {"type": "node", "id": 8864215878, "lat": 52.6664797, "lon": -8.5430847}, {"type": "node", "id": 8864215879, "lat": 52.6664228, "lon": -8.5432422}, {"type": "node", "id": 8864215880, "lat": 52.6664355, "lon": -8.5430413}, {"type": "node", "id": 8864215881, "lat": 52.6663786, "lon": -8.5431988}, {"type": "node", "id": 8864215882, "lat": 52.666347, "lon": -8.5429544}, {"type": "node", "id": 8864215883, "lat": 52.6663913, "lon": -8.5429978}, {"type": "node", "id": 8864215884, "lat": 52.6663344, "lon": -8.5431554}, {"type": "node", "id": 8864215885, "lat": 52.6662902, "lon": -8.543112}, {"type": "node", "id": 8864215886, "lat": 52.666358, "lon": -8.5436431}, {"type": "node", "id": 8864215887, "lat": 52.6663011, "lon": -8.5438006}, {"type": "node", "id": 8864215888, "lat": 52.6663138, "lon": -8.5435997}, {"type": "node", "id": 8864215889, "lat": 52.6662569, "lon": -8.5437572}, {"type": "node", "id": 8864215890, "lat": 52.6662696, "lon": -8.5435562}, {"type": "node", "id": 8864215891, "lat": 52.6662127, "lon": -8.5437138}, {"type": "node", "id": 8864215893, "lat": 52.6662254, "lon": -8.5435128}, {"type": "node", "id": 8864215894, "lat": 52.6661685, "lon": -8.5436704}, {"type": "node", "id": 8864215989, "lat": 52.6662541, "lon": -8.5443699}, {"type": "node", "id": 8864215995, "lat": 52.6656474, "lon": -8.5427123}, {"type": "node", "id": 8864215998, "lat": 52.6658605, "lon": -8.5427445}, {"type": "node", "id": 8864215999, "lat": 52.6664282, "lon": -8.5439113}, {"type": "node", "id": 8864216000, "lat": 52.6667047, "lon": -8.5436645}, {"type": "node", "id": 8864216001, "lat": 52.6667994, "lon": -8.5436488}, {"type": "node", "id": 8864216002, "lat": 52.666847, "lon": -8.5433789}, {"type": "node", "id": 8864216004, "lat": 52.667222, "lon": -8.5428143}, {"type": "node", "id": 10589094666, "lat": 52.6665826, "lon": -8.5436024}, {"type": "node", "id": 12123185520, "lat": 52.6668853, "lon": -8.5432663}, {"type": "node", "id": 13127853217, "lat": 52.6667521, "lon": -8.5436677}, {"type": "node", "id": 13127853218, "lat": 52.6666602, "lon": -8.543653}, {"type": "node", "id": 13205179428, "lat": 52.6664368, "lon": -8.5434754, "tags": {"direction": "both", "surface": "asphalt", "traffic_calming": "hump"}}, {"type": "way", "id": 701547042, "nodes": [6588444637, 10589094666, 6588444636, 13127853218, 8864216000, 13127853217, 8864216001, 6588444635, 8864216002, 12123185520, 6588444634, 6588444633, 8864216004], "tags": {"cycleway:both": "no", "cycleway:right": "track", "highway": "residential", "lane_markings": "no", "lanes": "2", "lit": "yes", "name": "Castlebrook Drive", "sidewalk": "both", "surface": "asphalt"}}, {"type": "way", "id": 812673929, "nodes": [6588444642, 8864215995, 6588444641, 8864215998, 6588444640, 6588444639, 6588444644, 6588444638, 13205179428, 6588444637], "tags": {"cycleway:both": "no", "highway": "residential", "lane_markings": "no", "lanes": "2", "lit": "yes", "name": "Castlebrook Green", "sidewalk": "both", "surface": "asphalt"}}, {"type": "way", "id": 958005087, "nodes": [8864215684, 8864215680, 8864215679, 8864215678, 8864215681, 8864215683, 8864215684], "tags": {"addr:city": "Limerick", "addr:country": "IE", "addr:street": "Castlebrook Drive", "addr:suburb": "Annacotty", "building": "house", "roof:shape": "gabled"}}, {"type": "way", "id": 958005088, "nodes": [8864215676, 8864215685, 8864215682, 8864215681, 8864215678, 8864215677, 8864215676], "tags": {"addr:city": "Limerick", "addr:country": "IE", "addr:street": "Castlebrook Drive", "addr:suburb": "Annacotty", "building": "house", "roof:shape": "gabled"}}, {"type": "way", "id": 958005089, "nodes": [8864215687, 8864215692, 8864215691, 8864215690, 8864215693, 8864215686, 8864215688, 8864215689, 8864215687], "tags": {"addr:city": "Limerick", "addr:country": "IE", "addr:street": "Castlebrook Drive", "addr:suburb": "Annacotty", "building": "house", "house": "detached", "roof:shape": "gabled"}}, {"type": "way", "id": 958005135, "nodes": [8864215879, 8864215877, 8864215876, 8864215878, 8864215879], "tags": {"addr:city": "Limerick", "addr:country": "IE", "addr:street": "Castlebrook Green", "addr:suburb": "Annacotty", "building": "house", "roof:shape": "gabled"}}, {"type": "way", "id": 958005136, "nodes": [8864215881, 8864215879, 8864215878, 8864215880, 8864215881], "tags": {"addr:city": "Limerick", "addr:country": "IE", "addr:street": "Castlebrook Green", "addr:suburb": "Annacotty", "building": "house", "roof:shape": "gabled"}}, {"type": "way", "id": 958005137, "nodes": [8864215884, 8864215881, 8864215880, 8864215883, 8864215884], "tags": {"addr:city": "Limerick", "addr:country": "IE", "addr:street": "Castlebrook Green", "addr:suburb": "Annacotty", "building": "house", "roof:shape": "gabled"}}, {"type": "way", "id": 958005138, "nodes": [8864215885, 8864215884, 8864215883, 8864215882, 8864215885], "tags": {"addr:city": "Limerick", "addr:country": "IE", "addr:street": "Castlebrook Green", "addr:suburb": "Annacotty", "building": "house", "roof:shape": "gabled"}}, {"type": "way", "id": 958005139, "nodes": [8864215889, 8864215887, 8864215886, 8864215888, 8864215889], "tags": {"addr:city": "Limerick", "addr:country": "IE", "addr:street": "Castlebrook Green", "addr:suburb": "Annacotty", "building": "house", "roof:shape": "gabled"}}, {"type": "way", "id": 958005140, "nodes": [8864215891, 8864215889, 8864215888, 8864215890, 8864215891], "tags": {"addr:city": "Limerick", "addr:country": "IE", "addr:street": "Castlebrook Green", "addr:suburb": "Annacotty", "building": "house", "roof:shape": "gabled"}}, {"type": "way", "id": 958005141, "nodes": [8864215894, 8864215891, 8864215890, 8864215893, 8864215894], "tags": {"addr:city": "Limerick", "addr:country": "IE", "addr:street": "Castlebrook Green", "addr:suburb": "Annacotty", "building": "house", "roof:shape": "gabled"}}, {"type": "way", "id": 1135937550, "nodes": [6588444637, 8864215999, 7590561756, 8864215989], "tags": {"cycleway:both": "no", "cycleway:right": "separate", "highway": "residential", "lane_markings": "no", "lanes": "2", "lit": "yes", "name": "Castlebrook Rise", "surface": "asphalt"}}]}