{"version": 0.6, "generator": "Overpass API 0.7.62.8 e802775f", "osm3s": {"timestamp_osm_base": "2025-11-09T05:19:00Z", "copyright": "The data included in this document is from www.openstreetmap.org. The data is made available under ODbL."}, "elements": [{"type": "node", "id": 250559086, "lat": 52.6617372, "lon": -8.6234556}, {"type": "node", "id": 373531212, "lat": 52.662314, "lon": -8.6250131}, {"type": "node", "id": 655378206, "lat": 52.6620596, "lon": -8.624332}, {"type": "node", "id": 1240401317, "lat": 52.6623358, "lon": -8.6243226}, {"type": "node", "id": 1240401319, "lat": 52.6623708, "lon": -8.6242863}, {"type": "node", "id": 1240401329, "lat": 52.6624048, "lon": -8.6243756}, {"type": "node", "id": 1240401331, "lat": 52.6623591, "lon": -8.6240385}, {"type": "node", "id": 1240401346, "lat": 52.6622434, "lon": -8.6241834}, {"type": "node", "id": 1240401350, "lat": 52.6621799, "lon": -8.624365}, {"type": "node", "id": 1240401358, "lat": 52.6622506, "lon": -8.6242017}, {"type": "node", "id": 1240401365, "lat": 52.6622422, "lon": -8.6242098}, {"type": "node", "id": 1240401366, "lat": 52.662464, "lon": -8.6243143}, {"type": "node", "id": 1240401367, "lat": 52.6622272, "lon": -8.6241746}, {"type": "node", "id": 1240401369, "lat": 52.662266, "lon": -8.6242731}, {"type": "node", "id": 1240401370, "lat": 52.6622347, "lon": -8.6241925}, {"type": "node", "id": 1240401371, "lat": 52.6623032, "lon": -8.6242371}, {"type": "node", "id": 1307323214, "lat": 52.6621275, "lon": -8.6245082}, {"type": "node", "id": 1307323223, "lat": 52.6613169, "lon": -8.6254407}, {"type": "node", "id": 1347765361, "lat": 52.6618589, "lon": -8.6237752}, {"type": "node", "id": 2984201173, "lat": 52.6620872, "lon": -8.6248855}, {"type": "node", "id": 2984201174, "lat": 52.6621606, "lon": -8.6250808}, {"type": "node", "id": 2984201175, "lat": 52.6615389, "lon": -8.6257643}, {"type": "node", "id": 2984201176, "lat": 52.6615176, "lon": -8.6257573}, {"type": "node", "id": 2984201177, "lat": 52.6613796, "lon": -8.6254073}, {"type": "node", "id": 2984201178, "lat": 52.6620096, "lon": -8.6246911}, {"type": "node", "id": 2992343500, "lat": 52.6614056, "lon": -8.6254733, "tags": {"barrier": "lift_gate"}}, {"type": "node", "id": 2992343501, "lat": 52.6620872, "lon": -8.6251568, "tags": {"barrier": "lift_gate"}}, {"type": "node", "id": 4030104144, "lat": 52.6622165, "lon": -8.6250161}, {"type": "node", "id": 4030104145, "lat": 52.6622229, "lon": -8.624978}, {"type": "node", "id": 4030104146, "lat": 52.6622037, "lon": -8.6249239}, {"type": "node", "id": 4030104147, "lat": 52.6621295, "lon": -8.624999}, {"type": "node", "id": 4030104148, "lat": 52.6621614, "lon": -8.6248104}, {"type": "node", "id": 4030104149, "lat": 52.6620866, "lon": -8.6245993}, {"type": "node", "id": 4030104150, "lat": 52.6622335, "lon": -8.6241903}, {"type": "node", "id": 4035101253, "lat": 52.6623357, "lon": -8.6249165, "tags": {"natural": "tree"}}, {"type": "node", "id": 4512768061, "lat": 52.6621738, "lon": -8.6244802, "tags": {"natural": "tree"}}, {"type": "node", "id": 4519820665, "lat": 52.6624429, "lon": -8.6250788}, {"type": "node", "id": 4519820666, "lat": 52.6625104, "lon": -8.6250115}, {"type": "node", "id": 4519820668, "lat": 52.6624122, "lon": -8.6249993}, {"type": "node", "id": 4519820669, "lat": 52.6624793, "lon": -8.624929}, {"type": "node", "id": 4519820670, "lat": 52.6623745, "lon": -8.6249036}, {"type": "node", "id": 4519820671, "lat": 52.662451, "lon": -8.6248282}, {"type": "node", "id": 4519820672, "lat": 52.6624872, "lon": -8.6249205}, {"type": "node", "id": 4519820673, "lat": 52.6624715, "lon": -8.6248079}, {"type": "node", "id": 4519820674, "lat": 52.6623404, "lon": -8.6248169}, {"type": "node", "id": 4519820675, "lat": 52.6624394, "lon": -8.624719}, {"type": "node", "id": 4519820676, "lat": 52.6623083, "lon": -8.6247291}, {"type": "node", "id": 4519820677, "lat": 52.662408, "lon": -8.6246311}, {"type": "node", "id": 4519820678, "lat": 52.6622782, "lon": -8.6246424}, {"type": "node", "id": 4519820679, "lat": 52.6623944, "lon": -8.6245117}, {"type": "node", "id": 4519820680, "lat": 52.6624087, "lon": -8.6245523}, {"type": "node", "id": 4519820681, "lat": 52.6623903, "lon": -8.6245759}, {"type": "node", "id": 4519820682, "lat": 52.6623703, "lon": -8.6245388}, {"type": "node", "id": 4519820683, "lat": 52.6623561, "lon": -8.6244971}, {"type": "node", "id": 4519820684, "lat": 52.6623745, "lon": -8.6244735}, {"type": "node", "id": 4519820685, "lat": 52.6623602, "lon": -8.6244318}, {"type": "node", "id": 4519820686, "lat": 52.6622434, "lon": -8.62455}, {"type": "node", "id": 4519820687, "lat": 52.6623368, "lon": -8.6244552}, {"type": "node", "id": 4519820688, "lat": 52.6623035, "lon": -8.6243631}, {"type": "node", "id": 4519820989, "lat": 52.6622113, "lon": -8.6244599}, {"type": "node", "id": 5004794534, "lat": 52.662419, "lon": -8.6249245, "tags": {"alt_name": "Sally Beauty Supply", "brand": "Sally Beauty", "brand:wikidata": "Q7405065", "check_date": "2024-08-20", "check_date:opening_hours": "2024-01-28", "email": "LIMERICK.STORE@SALLYBEAUTY.COM", "name": "Sally Beauty", "opening_hours": "Mo-Sa 09:00-17:30; Su 13:00-17:00", "phone": "+353 61 410 591", "shop": "hairdresser_supply", "toilets:wheelchair": "no", "website": "https://www.sallybeauty.co.uk/storeinfo?StoreID=7951", "wheelchair": "yes"}}, {"type": "node", "id": 5004794535, "lat": 52.6623868, "lon": -8.6248164, "tags": {"addr:city": "Limerick", "addr:street": "Thomas Street", "check_date": "2024-01-28", "name": "Limerick Marine Search & Rescue Service", "phone": "+353 89 491 8352", "shop": "charity"}}, {"type": "node", "id": 5004794536, "lat": 52.6623581, "lon": -8.6247425, "tags": {"addr:city": "Limerick", "addr:street": "Thomas Street", "check_date": "2024-01-28", "name": "Delaney Opticians", "opening_hours": "Tu-Fr 09:30-13:30, 14:30-17:30; Sa 10:00-13:00, 13:30-16:00", "phone": "+353 61 419 548", "shop": "optician", "toilets:wheelchair": "no", "website": "https://delaneyopticians.com", "wheelchair": "yes"}}, {"type": "node", "id": 5004794537, "lat": 52.662144, "lon": -8.6249024, "tags": {"addr:city": "Limerick", "addr:street": "Thomas Street", "name": "Fringe Hair Salon", "opening_hours": "Mo-We 09:30-17:30; Th-Fr 09:30-20:00; Sa 09:00-17:00", "shop": "hairdresser"}}, {"type": "node", "id": 5004794539, "lat": 52.6623088, "lon": -8.6246223, "tags": {"amenity": "cafe", "check_date": "2024-01-28", "name": "Klaud 9"}}, {"type": "node", "id": 5004794540, "lat": 52.6621144, "lon": -8.6248012, "tags": {"addr:city": "Limerick", "addr:street": "Thomas Street", "check_date": "2024-01-28", "name": "Da Vinci Barber Shop", "opening_hours": "Mo-Th 09:00-17:45; Fr 09:00-19:00; Sa 08:30-17:30", "phone": "+353 61 404 998", "shop": "hairdresser", "toilets:wheelchair": "no", "wheelchair": "yes"}}, {"type": "node", "id": 5004794542, "lat": 52.6622557, "lon": -8.6244819, "tags": {"addr:city": "Limerick", "addr:street": "Thomas Street", "check_date": "2024-01-28", "name": "Laundrette", "opening_hours": "Mo-Sa 08:30-17:00; Su off", "phone": "+353 61 315 345", "shop": "laundry", "wheelchair": "limited"}}, {"type": "node", "id": 5004794543, "lat": 52.662226, "lon": -8.6243794, "tags": {"addr:city": "Limerick", "addr:street": "Thomas Street", "check_date": "2024-01-28", "name": "Interior Dreams", "opening_hours": "Mo-Fr 09:00-17:30; Sa 10:00-17:30", "shop": "interior_decoration", "toilets:wheelchair": "no", "wheelchair": "limited"}}, {"type": "node", "id": 7529723025, "lat": 52.6626988, "lon": -8.6258886, "tags": {"barrier": "kerb", "check_date:tactile_paving": "2025-09-26", "kerb": "flush", "tactile_paving": "no"}}, {"type": "node", "id": 7529926692, "lat": 52.6621374, "lon": -8.6242652}, {"type": "node", "id": 7529926693, "lat": 52.6621107, "lon": -8.6242951}, {"type": "node", "id": 7529926694, "lat": 52.6626631, "lon": -8.6257675}, {"type": "node", "id": 7590468139, "lat": 52.6620731, "lon": -8.624524, "tags": {"barrier": "kerb", "kerb": "flush", "tactile_paving": "no"}}, {"type": "node", "id": 7590468140, "lat": 52.6620867, "lon": -8.6245551}, {"type": "node", "id": 7590468141, "lat": 52.6620989, "lon": -8.6245857, "tags": {"barrier": "kerb", "kerb": "flush", "tactile_paving": "no"}}, {"type": "node", "id": 7590468144, "lat": 52.661348, "lon": -8.6254049}, {"type": "node", "id": 7590468146, "lat": 52.6621162, "lon": -8.6251739, "tags": {"barrier": "kerb", "kerb": "flush", "tactile_paving": "no"}}, {"type": "node", "id": 7590468149, "lat": 52.6622428, "lon": -8.6249604}, {"type": "node", "id": 7590468150, "lat": 52.662237, "lon": -8.6250245}, {"type": "node", "id": 8457775145, "lat": 52.6617513, "lon": -8.6234926, "tags": {"crossing": "unmarked", "crossing:island": "no", "crossing:markings": "no", "highway": "crossing", "tactile_paving": "yes"}}, {"type": "node", "id": 11560062345, "lat": 52.6622775, "lon": -8.6245491, "tags": {"addr:housenumber": "26", "addr:street": "Thomas Street", "check_date": "2024-01-28", "name": "Su Nails & Spa Pedicure American Style", "phone": "+353 83 847 9373", "shop": "beauty"}}, {"type": "way", "id": 108049760, "nodes": [1240401331, 1240401366, 1240401329, 1240401319, 1240401317, 1240401371, 1240401369, 1240401365, 1240401358, 1240401346, 1240401370, 4030104150, 1240401367, 1240401331], "tags": {"building": "yes", "construction_date": "1838;1936"}}, {"type": "way", "id": 115804445, "nodes": [1307323214, 7590468140, 7590468144, 1307323223], "tags": {"highway": "service", "name": "Roches Row", "name:ga": "Rae an R\u00f3istigh"}}, {"type": "way", "id": 120139842, "nodes": [373531212, 1307323214, 655378206, 1347765361, 8457775145, 250559086], "tags": {"cycleway:both": "no", "highway": "unclassified", "lane_markings": "yes", "lanes": "2", "lit": "yes", "loc_ref": "L-10336-2", "logainm:ref": "1405059", "logainm:url": "https://www.logainm.ie/1405059.aspx", "name": "Thomas Street", "name:en": "Thomas Street", "name:ga": "Sr\u00e1id Thom\u00e1is", "ref": "L10336", "sidewalk": "both", "source": "names: street sign", "surface": "asphalt", "wikidata": "Q7794239"}}, {"type": "way", "id": 294796973, "nodes": [2984201173, 4030104147, 2984201174, 2992343501, 2984201175, 2984201176, 2992343500, 2984201177, 2984201178, 2984201173], "tags": {"access": "customers", "amenity": "parking", "building": "yes", "capacity:disabled": "yes", "fee": "yes", "name": "City Centre Car Park", "opening_hours": "Mo-We 08:00-19:30; Th-Fr 08:00-21:00; Sa 08:00-19:00; Su 11:00-18:30", "parking": "multi-storey", "wheelchair": "yes"}}, {"type": "way", "id": 400460291, "nodes": [2984201174, 4030104144, 4030104145, 4030104146, 4030104147, 2984201174], "tags": {"building": "yes", "check_date": "2024-01-28", "shop": "yes"}}, {"type": "way", "id": 400460292, "nodes": [4030104146, 4030104147, 2984201173, 4030104148, 4030104146], "tags": {"beauty": "foot;nails", "building": "yes", "check_date": "2024-01-28", "contact:facebook": "https://www.facebook.com/cocolimerick", "contact:instagram": "https://www.instagram.com/cocolimerick", "name": "Coco American Style Hand & Foot Spa", "opening_hours": "Mo-We 10:00-18:00; Th-Fr 10:00-19:30; Sa 10:00-17:30; Su,PH off", "payment:cash": "yes", "payment:credit_cards": "yes", "payment:debit_cards": "yes", "phone": "+353 61 414 917", "shop": "beauty", "wheelchair": "limited"}}, {"type": "way", "id": 400460293, "nodes": [2984201173, 2984201178, 4030104149, 4030104148, 2984201173], "tags": {"building": "yes", "shop": "yes"}}, {"type": "way", "id": 455591767, "nodes": [4519820665, 4519820668, 4519820669, 4519820666, 4519820665], "tags": {"building": "retail"}}, {"type": "way", "id": 455591768, "nodes": [4519820668, 4519820670, 4519820671, 4519820672, 4519820669, 4519820668], "tags": {"building": "retail"}}, {"type": "way", "id": 455591769, "nodes": [4519820673, 4519820671, 4519820670, 4519820674, 4519820675, 4519820673], "tags": {"building": "retail"}}, {"type": "way", "id": 455591770, "nodes": [4519820675, 4519820674, 4519820676, 4519820677, 4519820675], "tags": {"building": "retail"}}, {"type": "way", "id": 455591772, "nodes": [4519820677, 4519820676, 4519820678, 4519820682, 4519820679, 4519820680, 4519820681, 4519820677], "tags": {"building": "retail"}}, {"type": "way", "id": 455591773, "nodes": [4519820682, 4519820683, 4519820684, 4519820685, 4519820687, 4519820686, 4519820678, 4519820682], "tags": {"building": "retail"}}, {"type": "way", "id": 455591775, "nodes": [4519820687, 4519820688, 4519820989, 4519820686, 4519820687], "tags": {"building": "retail"}}, {"type": "way", "id": 455591777, "nodes": [4519820688, 1240401369, 1240401350, 4519820989, 4519820688], "tags": {"building": "retail"}}, {"type": "way", "id": 805092180, "nodes": [7529926692, 7529926693, 7529926694, 7529723025], "tags": {"footway": "sidewalk", "highway": "footway", "lit": "yes", "surface": "paving_stones"}}, {"type": "way", "id": 812663405, "nodes": [7590468139, 7590468140, 7590468141], "tags": {"footway": "crossing", "highway": "footway", "lit": "yes", "surface": "paving_stones"}}, {"type": "way", "id": 812663408, "nodes": [7590468141, 7590468149, 7590468150, 7590468146], "tags": {"footway": "sidewalk", "highway": "footway", "lit": "yes", "surface": "paving_stones"}}]}