{"version": 0.6, "generator": "Overpass API 0.7.62.8 e802775f", "osm3s": {"timestamp_osm_base": "2025-11-07T16:47:15Z", "copyright": "The data included in this document is from www.openstreetmap.org. The data is made available under ODbL."}, "elements": [{"type": "node", "id": 272347911, "lat": 53.2711456, "lon": -9.052825}, {"type": "node", "id": 272406347, "lat": 53.2714539, "lon": -9.053823}, {"type": "node", "id": 279843714, "lat": 53.2713291, "lon": -9.053334}, {"type": "node", "id": 394132939, "lat": 53.2722945, "lon": -9.0522355}, {"type": "node", "id": 401531324, "lat": 53.2718619, "lon": -9.0528256}, {"type": "node", "id": 1447083889, "lat": 53.2727629, "lon": -9.0514886}, {"type": "node", "id": 1469613218, "lat": 53.2715171, "lon": -9.0536649, "tags": {"name": "Faller's Sweater Shop", "shop": "clothes", "wheelchair": "yes"}}, {"type": "node", "id": 1595691990, "lat": 53.2714793, "lon": -9.0532772}, {"type": "node", "id": 1595691995, "lat": 53.2716388, "lon": -9.0530873}, {"type": "node", "id": 1595691998, "lat": 53.2717702, "lon": -9.0529369}, {"type": "node", "id": 1595692005, "lat": 53.2720059, "lon": -9.052636}, {"type": "node", "id": 1595692007, "lat": 53.2722356, "lon": -9.0523146}, {"type": "node", "id": 1595692009, "lat": 53.2724233, "lon": -9.0520614}, {"type": "node", "id": 1595692011, "lat": 53.2726098, "lon": -9.0517894}, {"type": "node", "id": 1595692013, "lat": 53.2726768, "lon": -9.0516854}, {"type": "node", "id": 1595692015, "lat": 53.2727117, "lon": -9.0516202}, {"type": "node", "id": 1601289455, "lat": 53.2713918, "lon": -9.0534348}, {"type": "node", "id": 1601289464, "lat": 53.2714303, "lon": -9.0535799}, {"type": "node", "id": 1601289467, "lat": 53.2715051, "lon": -9.0533235}, {"type": "node", "id": 1601289469, "lat": 53.2715515, "lon": -9.0534771}, {"type": "node", "id": 1601289472, "lat": 53.2715611, "lon": -9.0523088}, {"type": "node", "id": 1601289476, "lat": 53.2716057, "lon": -9.0524028}, {"type": "node", "id": 1630292277, "lat": 53.2712148, "lon": -9.0527941}, {"type": "node", "id": 1630292281, "lat": 53.2713431, "lon": -9.0532059}, {"type": "node", "id": 1630292283, "lat": 53.2713825, "lon": -9.0532488}, {"type": "node", "id": 1630292285, "lat": 53.2714828, "lon": -9.0531693}, {"type": "node", "id": 1630292287, "lat": 53.2718296, "lon": -9.0527955}, {"type": "node", "id": 1649346234, "lat": 53.2712197, "lon": -9.0531213}, {"type": "node", "id": 1649346255, "lat": 53.2711885, "lon": -9.0533998}, {"type": "node", "id": 1649346281, "lat": 53.2712614, "lon": -9.0532663}, {"type": "node", "id": 1649346284, "lat": 53.2712798, "lon": -9.0533281}, {"type": "node", "id": 1659710213, "lat": 53.271751, "lon": -9.052479}, {"type": "node", "id": 6986795604, "lat": 53.2717134, "lon": -9.0532373}, {"type": "node", "id": 6986795609, "lat": 53.2716718, "lon": -9.0532816}, {"type": "node", "id": 6986795613, "lat": 53.2716476, "lon": -9.0536052}, {"type": "node", "id": 6986795614, "lat": 53.2716143, "lon": -9.0534811}, {"type": "node", "id": 7027333427, "lat": 53.271548, "lon": -9.0533219, "tags": {"addr:city": "Galway", "addr:housename": "Middle Street Mews", "addr:housenumber": "1", "addr:postcode": "H91 AF89", "addr:street": "Middle Street", "amenity": "restaurant", "check_date": "2023-08-11", "contact:facebook": "https://www.facebook.com/cavagalway", "cuisine": "tapas;spanish", "diet:vegetarian": "yes", "name": "Cava Bodega", "opening_hours": "Mo off; Tu off; We 17:00-22:00; Th 17:00-22:30; Fr 16:00-23:00; Sa 12:00-23:30; Su 12:00-21:30", "phone": "+353 91 539 884", "website": "https://www.cavarestaurant.ie/", "wheelchair": "yes"}}, {"type": "node", "id": 8003114370, "lat": 53.2713605, "lon": -9.0534554, "tags": {"barrier": "bollard", "bollard": "flexible", "foot": "yes", "motor_vehicle": "no"}}, {"type": "node", "id": 8005943275, "lat": 53.2714773, "lon": -9.0535425}, {"type": "node", "id": 8005943276, "lat": 53.2714867, "lon": -9.0535773}, {"type": "node", "id": 8005943278, "lat": 53.2714921, "lon": -9.0537315}, {"type": "node", "id": 8005943279, "lat": 53.2714692, "lon": -9.0537247}, {"type": "node", "id": 8005943282, "lat": 53.2712887, "lon": -9.053432, "tags": {"addr:city": "Galway", "addr:housenumber": "2", "addr:postcode": "H91 ND36", "addr:street": "Cross Street Lower", "male": "yes", "name": "3B\u2019s Barber Shop & Hair Salon", "opening_hours": "Mo-We 09:00-19:00; Th,Fr 09:00-20:00; Sa 09:00-18:00; Su off", "phone": "+353 91 865 864", "shop": "hairdresser", "website": "https://3bs.ie/"}}, {"type": "node", "id": 8005943283, "lat": 53.271256, "lon": -9.0529291, "tags": {"entrance": "yes"}}, {"type": "node", "id": 8005956387, "lat": 53.2716554, "lon": -9.0529837, "tags": {"entrance": "yes"}}, {"type": "node", "id": 8113266801, "lat": 53.2715359, "lon": -9.0534265}, {"type": "node", "id": 8113266803, "lat": 53.271569, "lon": -9.0532625}, {"type": "node", "id": 8113277937, "lat": 53.2711788, "lon": -9.0535375}, {"type": "node", "id": 8113277938, "lat": 53.2712438, "lon": -9.0535897}, {"type": "node", "id": 8113277939, "lat": 53.2713089, "lon": -9.053722}, {"type": "node", "id": 8113277945, "lat": 53.2714043, "lon": -9.0537846}, {"type": "node", "id": 8113277946, "lat": 53.2713335, "lon": -9.0535193}, {"type": "node", "id": 8113277953, "lat": 53.2713429, "lon": -9.0538375}, {"type": "node", "id": 8125055286, "lat": 53.2718047, "lon": -9.0526746}, {"type": "node", "id": 8125055290, "lat": 53.2712259, "lon": -9.0527412}, {"type": "node", "id": 8125055292, "lat": 53.2717889, "lon": -9.0526916}, {"type": "node", "id": 8125055293, "lat": 53.2718165, "lon": -9.0526631}, {"type": "node", "id": 9439926747, "lat": 53.2711421, "lon": -9.0532932}, {"type": "node", "id": 9439926748, "lat": 53.2711106, "lon": -9.0533184}, {"type": "node", "id": 9439926749, "lat": 53.2710851, "lon": -9.0532294}, {"type": "node", "id": 9439926751, "lat": 53.2711758, "lon": -9.0534108}, {"type": "node", "id": 9439926752, "lat": 53.2711581, "lon": -9.053349}, {"type": "node", "id": 9439926753, "lat": 53.2711874, "lon": -9.0535683}, {"type": "node", "id": 9445648217, "lat": 53.2716799, "lon": -9.0525752}, {"type": "node", "id": 9925153335, "lat": 53.2711433, "lon": -9.0531831}, {"type": "node", "id": 9925153336, "lat": 53.2712185, "lon": -9.0535064}, {"type": "node", "id": 9925153337, "lat": 53.2712287, "lon": -9.053536}, {"type": "node", "id": 9925153338, "lat": 53.2712357, "lon": -9.0532423, "tags": {"addr:city": "Galway", "addr:housenumber": "3", "addr:street": "Cross Street Lower", "check_date": "2022-08-17", "name": "Enable Ireland", "operator": "Enable Ireland", "phone": "+35385 8075931", "shop": "charity", "website": "https://www.enableireland.ie/"}}, {"type": "node", "id": 9925153340, "lat": 53.2713309, "lon": -9.0535971, "tags": {"addr:city": "Galway", "addr:housenumber": "2", "addr:street": "Cross Street Lower", "name": "Designs of Ireland", "phone": "+353 91 539 790", "shop": "clothes", "website": "https://designsofireland.ie/"}}, {"type": "node", "id": 9925153341, "lat": 53.2712669, "lon": -9.0536683}, {"type": "node", "id": 9925153342, "lat": 53.2712903, "lon": -9.0536497}, {"type": "node", "id": 9925153343, "lat": 53.2713972, "lon": -9.0534063}, {"type": "node", "id": 9925153348, "lat": 53.2714247, "lon": -9.0534321, "tags": {"addr:city": "Galway", "addr:country": "IE", "addr:county": "Galway", "addr:housenumber": "42-44", "addr:postcode": "H91 R8W3", "addr:street": "Middle Street", "amenity": "pub", "contact:facebook": "thedailbar", "contact:instagram": "@thedailbargalway", "contact:twitter": "@TheDailBar1", "email": "manager@thedailbar.com", "name": "The D\u00e1il Bar", "phone": "+353 91 563 777", "smoking": "separated", "website": "https://thedailbar.com", "wheelchair": "yes"}}, {"type": "node", "id": 9925153350, "lat": 53.2716732, "lon": -9.0531261}, {"type": "node", "id": 9925153351, "lat": 53.2715657, "lon": -9.0532512}, {"type": "node", "id": 9925153358, "lat": 53.2718471, "lon": -9.0528436}, {"type": "node", "id": 9927873922, "lat": 53.2727526, "lon": -9.0515366}, {"type": "node", "id": 9927873923, "lat": 53.2727611, "lon": -9.051511}, {"type": "node", "id": 9928131088, "lat": 53.2722266, "lon": -9.0534829}, {"type": "node", "id": 9928131089, "lat": 53.2722164, "lon": -9.0533807}, {"type": "node", "id": 9928131090, "lat": 53.2722096, "lon": -9.0533276}, {"type": "node", "id": 9928131092, "lat": 53.2721538, "lon": -9.0534604}, {"type": "node", "id": 9928131093, "lat": 53.2719848, "lon": -9.0535079}, {"type": "node", "id": 9928131094, "lat": 53.2718144, "lon": -9.0535965}, {"type": "node", "id": 9928131095, "lat": 53.2716334, "lon": -9.0537335}, {"type": "node", "id": 9928131096, "lat": 53.2714877, "lon": -9.0537953}, {"type": "node", "id": 9928131097, "lat": 53.2714659, "lon": -9.0537357}, {"type": "node", "id": 9928131098, "lat": 53.2714922, "lon": -9.0537396}, {"type": "node", "id": 9928131099, "lat": 53.2717896, "lon": -9.0535014}, {"type": "node", "id": 9928131100, "lat": 53.2718567, "lon": -9.0534643}, {"type": "node", "id": 9928131101, "lat": 53.2719295, "lon": -9.0534285}, {"type": "node", "id": 9928131102, "lat": 53.2721129, "lon": -9.0533705}, {"type": "node", "id": 9928131104, "lat": 53.2721724, "lon": -9.0533491}, {"type": "node", "id": 9928131123, "lat": 53.2714062, "lon": -9.05386}, {"type": "node", "id": 9928131124, "lat": 53.2713874, "lon": -9.053433}, {"type": "node", "id": 9928131125, "lat": 53.2713297, "lon": -9.0534813}, {"type": "node", "id": 9928131126, "lat": 53.2714089, "lon": -9.053787}, {"type": "node", "id": 9928131143, "lat": 53.2715027, "lon": -9.0538319}, {"type": "node", "id": 9941289816, "lat": 53.2713832, "lon": -9.0531774, "tags": {"addr:city": "Galway", "addr:postcode": "H91 H3N8", "addr:street": "Middle Street", "addr:unit": "10", "level": "0", "name": "Kindf_olk", "phone": "+353 91 865 847", "shop": "clothes", "website": "https://kindfolkgalway.ie/"}}, {"type": "node", "id": 9959513373, "lat": 53.2712519, "lon": -9.0533094, "tags": {"addr:city": "Galway", "addr:housenumber": "4", "addr:street": "Cross Street Lower", "check_date": "2022-08-17", "name": "Sugar Dolls", "opening_hours": "Mo-Tu,Sa 09:00-19:00; We-Fr 09:00-21:00; Su 11:00-19:00", "phone": "+353 91 330 695", "shop": "beauty", "website": "https://www.sugardolls.ie/"}}, {"type": "node", "id": 10128935666, "lat": 53.2712177, "lon": -9.0529607}, {"type": "node", "id": 10676265674, "lat": 53.272014, "lon": -9.0534018}, {"type": "node", "id": 10793574605, "lat": 53.2714697, "lon": -9.0536803, "tags": {"check_date": "2025-07-28", "check_date:opening_hours": "2025-07-28", "name": "Carrolls Irish Gifts", "opening_hours": "Mo 10:00-19:30; Tu,We 10:00-20:00; Th,Fr 10:00-21:00; Sa 10:00-21:00; Su 09:30-20:30", "payment:cash": "yes", "payment:credit_cards": "yes", "shop": "gift", "wheelchair": "no"}}, {"type": "node", "id": 11368903904, "lat": 53.2713041, "lon": -9.0534948, "tags": {"addr:city": "Galway", "addr:housenumber": "3", "addr:postcode": "H91 K5V0", "addr:street": "Cross Street Lower", "name": "Obsidian Arts", "opening_hours": "Mo-Sa 11:00-18:00; Su 12:00-17:00", "payment:cash": "yes", "payment:credit_cards": "yes", "payment:debit_cards": "yes", "payment:mastercard": "yes", "payment:visa": "yes", "shop": "tattoo", "website": "https://www.obsidianartsgalway.com/", "wheelchair": "limited"}}, {"type": "node", "id": 11564644541, "lat": 53.271484, "lon": -9.0532278, "tags": {"access": "yes", "amenity": "bicycle_parking", "bicycle_parking": "wide_stands", "capacity": "10", "covered": "no", "fee": "no"}}, {"type": "node", "id": 11805723459, "lat": 53.2714238, "lon": -9.0533208}, {"type": "node", "id": 11805723460, "lat": 53.2713849, "lon": -9.0533304}, {"type": "node", "id": 11805723461, "lat": 53.2711917, "lon": -9.0528756}, {"type": "node", "id": 11805723465, "lat": 53.2711755, "lon": -9.052845}, {"type": "node", "id": 12601604048, "lat": 53.2713951, "lon": -9.0534173, "tags": {"entrance": "shop"}}, {"type": "node", "id": 12601604049, "lat": 53.2713941, "lon": -9.0534228, "tags": {"amenity": "clock", "display": "analog", "support": "wall_mounted"}}, {"type": "node", "id": 12601666237, "lat": 53.2713684, "lon": -9.0538156, "tags": {"entrance": "shop"}}, {"type": "node", "id": 12601680430, "lat": 53.2714223, "lon": -9.0535497, "tags": {"entrance": "shop"}}, {"type": "node", "id": 12601680431, "lat": 53.2714271, "lon": -9.0535678, "tags": {"entrance": "home"}}, {"type": "node", "id": 12601730235, "lat": 53.2713037, "lon": -9.0534133, "tags": {"addr:housenumber": "2", "addr:street": "Cross Street Lower", "entrance": "shop"}}, {"type": "node", "id": 12601730236, "lat": 53.2712887, "lon": -9.0533598, "tags": {"entrance": "shop"}}, {"type": "node", "id": 12601730237, "lat": 53.2712547, "lon": -9.0532428, "tags": {"addr:housenumber": "3", "entrance": "shop"}}, {"type": "node", "id": 12601730238, "lat": 53.2712259, "lon": -9.053143, "tags": {"addr:housenumber": "2", "entrance": "shop"}}, {"type": "node", "id": 12601767864, "lat": 53.271479, "lon": -9.0537276, "tags": {"entrance": "shop"}}, {"type": "node", "id": 12601767865, "lat": 53.2715364, "lon": -9.0536951, "tags": {"entrance": "shop"}}, {"type": "node", "id": 12601767866, "lat": 53.2715853, "lon": -9.0536548, "tags": {"entrance": "shop"}}, {"type": "node", "id": 12601767867, "lat": 53.2716314, "lon": -9.0536174, "tags": {"entrance": "shop"}}, {"type": "node", "id": 12601935215, "lat": 53.2715631, "lon": -9.0535196}, {"type": "node", "id": 12601935216, "lat": 53.2715964, "lon": -9.0536437}, {"type": "node", "id": 12601935217, "lat": 53.271204, "lon": -9.053455}, {"type": "node", "id": 12601935218, "lat": 53.2712953, "lon": -9.0533834}, {"type": "node", "id": 12601935219, "lat": 53.2712925, "lon": -9.0536584}, {"type": "node", "id": 12601935220, "lat": 53.2713587, "lon": -9.0536109}, {"type": "node", "id": 12601976255, "lat": 53.2722046, "lon": -9.052358}, {"type": "node", "id": 12601976257, "lat": 53.2721766, "lon": -9.0524014}, {"type": "node", "id": 12602043774, "lat": 53.271994, "lon": -9.0526517}, {"type": "node", "id": 12603782796, "lat": 53.2713359, "lon": -9.0532041, "tags": {"amenity": "waste_basket"}}, {"type": "way", "id": 131495857, "nodes": [279843714, 10128935666, 11805723461, 11805723465, 272347911], "tags": {"cycleway:left": "no", "highway": "unclassified", "lanes": "1", "lit": "yes", "mapillary": "331275618418929", "maxspeed": "30", "name": "Cross Street Lower", "name:en": "Cross Street Lower", "name:ga": "An tSr\u00e1id Trasna \u00cdocth.", "oneway": "yes", "sidewalk": "both", "source:maxspeed": "sign", "surface": "asphalt", "survey:date": "2018-05-07"}}, {"type": "way", "id": 146302165, "nodes": [1447083889, 9927873923, 9927873922, 1595692015, 1595692013, 1595692011, 1595692009, 394132939, 1595692007, 12601976255, 12601976257, 1595692005, 12602043774, 401531324, 9925153358, 1595691998, 1595691995, 1595691990, 11805723459, 11805723460, 279843714], "tags": {"access": "no", "bicycle": "yes", "foot": "yes", "highway": "unclassified", "horse": "no", "lanes": "1", "lit": "yes", "maxspeed": "30", "motor_vehicle": "yes", "name": "Middle Street", "name:en": "Middle Street", "name:ga": "An tSr\u00e1id L\u00e1ir", "oneway": "yes", "smoothness": "excellent", "source:maxspeed": "sign", "surface": "asphalt"}}, {"type": "way", "id": 146909212, "nodes": [1601289455, 12601680430, 12601680431, 1601289464, 8005943275, 1601289469, 8113266801, 1601289467, 9925153343, 12601604048, 12601604049, 1601289455], "tags": {"addr:city": "Galway", "addr:country": "IE", "addr:county": "Galway", "addr:housenumber": "42-44", "addr:postcode": "H91 R8W3", "addr:street": "Middle Street", "building": "retail", "building:colour": "#975C4F", "building:levels": "2", "building:material": "plaster", "building:prefabricated": "no", "wheelchair": "yes"}}, {"type": "way", "id": 152105447, "nodes": [9439926752, 9439926751, 1649346255, 1649346284, 1649346281, 9439926752], "tags": {"addr:city": "Galway", "addr:housenumber": "4", "addr:street": "Cross Street Lower", "building": "retail", "building:levels": "4"}}, {"type": "way", "id": 152105448, "nodes": [1649346281, 12601730237, 12601730238, 1649346234, 9925153335, 9439926749, 9439926748, 9439926747, 9439926752, 1649346281], "tags": {"addr:city": "Galway", "addr:street": "Cross Street Lower", "building": "retail", "building:levels": "4"}}, {"type": "way", "id": 858213592, "nodes": [272406347, 8003114370, 279843714], "tags": {"bicycle": "no", "highway": "pedestrian", "lit": "yes", "maxaxleload": "5", "maxlength": "12", "maxspeed": "20", "motor_vehicle:conditional": "delivery @ (06:00-09:00)", "name": "Cross Street Lower", "name:en": "Cross Street Lower", "name:ga": "An tSr\u00e1id Trasna \u00cdocth.", "oneway": "yes", "surface": "asphalt"}}, {"type": "way", "id": 858830014, "nodes": [12601935216, 12601767866, 12601767865, 8005943278, 12601767864, 8005943279, 1601289464, 8005943275, 8005943276, 12601935215, 12601935216], "tags": {"building": "retail", "building:levels": "3"}}, {"type": "way", "id": 858830016, "nodes": [1630292277, 8125055290, 1601289472, 1601289476, 9445648217, 1659710213, 8125055293, 8125055286, 8125055292, 1630292287, 8005956387, 1630292285, 1630292283, 1630292281, 8005943283, 1630292277], "tags": {"addr:city": "Galway", "addr:street": "Middle Street", "building": "retail", "building:levels": "1", "changing_table": "yes", "layer": "1", "name": "The Cornstore", "shop": "mall", "toilets": "yes", "toilets:wheelchair": "yes", "wheelchair": "yes"}}, {"type": "way", "id": 870985430, "nodes": [8113266803, 1601289467, 8113266801, 6986795609, 6986795604, 9925153350, 9925153351, 8113266803], "tags": {"building": "retail", "building:colour": "#6D6D6D", "building:levels": "3", "building:material": "stone", "name": "Middle Street Mews"}}, {"type": "way", "id": 870985442, "nodes": [12601935217, 9925153336, 8113277937, 9439926753, 9925153337, 8113277938, 8113277946, 12601730235, 12601935218, 12601935217], "tags": {"addr:city": "Galway", "addr:housenumber": "3", "addr:street": "Cross Street Lower", "building": "house", "building:levels": "3"}}, {"type": "way", "id": 870985443, "nodes": [12601935220, 8113277946, 8113277938, 9925153341, 9925153342, 12601935219, 12601935220], "tags": {"building": "retail", "building:levels": "3"}}, {"type": "way", "id": 1083334815, "nodes": [9928131088, 9928131092, 9928131093, 9928131094, 9928131095, 9928131143, 9928131096, 9928131097, 9928131098, 9928131099, 9928131100, 9928131101, 10676265674, 9928131102, 9928131104, 9928131090, 9928131089, 9928131088], "tags": {"area": "yes", "highway": "pedestrian", "lit": "yes", "surface": "paving_stones"}}, {"type": "way", "id": 1083334817, "nodes": [9928131096, 9928131097, 9928131124, 8003114370, 9928131125, 9928131126, 9928131123, 272406347, 9928131096], "tags": {"area": "yes", "highway": "pedestrian", "surface": "paving_stones"}}, {"type": "way", "id": 1361266998, "nodes": [12601935215, 6986795614, 6986795613, 12601767867, 12601935216, 12601935215], "tags": {"building": "retail", "building:levels": "3"}}, {"type": "way", "id": 1361266999, "nodes": [12601935218, 12601730236, 1649346284, 1649346255, 12601935217, 12601935218], "tags": {"addr:city": "Galway", "addr:street": "Cross Street Lower", "building": "house", "building:levels": "4"}}, {"type": "way", "id": 1361267000, "nodes": [12601935219, 8113277939, 8113277953, 12601666237, 8113277945, 12601935220, 12601935219], "tags": {"building": "retail", "building:levels": "3"}}]}