{"version": 0.6, "generator": "Overpass API 0.7.62.8 e802775f", "osm3s": {"timestamp_osm_base": "2025-11-07T13:12:19Z", "copyright": "The data included in this document is from www.openstreetmap.org. The data is made available under ODbL."}, "elements": [{"type": "node", "id": 7867553359, "lat": 52.666659, "lon": -8.639279}, {"type": "node", "id": 7867553360, "lat": 52.6665723, "lon": -8.6392719}, {"type": "node", "id": 7867553361, "lat": 52.6665745, "lon": -8.6392004}, {"type": "node", "id": 7867553362, "lat": 52.6666612, "lon": -8.6392075}, {"type": "node", "id": 8176072297, "lat": 52.6666782, "lon": -8.639471}, {"type": "node", "id": 8176072298, "lat": 52.6665938, "lon": -8.6394665}, {"type": "node", "id": 8176072301, "lat": 52.6665903, "lon": -8.6396643}, {"type": "node", "id": 8176072302, "lat": 52.6666736, "lon": -8.639669}, {"type": "node", "id": 8176072303, "lat": 52.6666813, "lon": -8.6393103}, {"type": "node", "id": 8176072306, "lat": 52.6665393, "lon": -8.6393028}, {"type": "node", "id": 8176072307, "lat": 52.6665379, "lon": -8.6393763}, {"type": "node", "id": 8176072308, "lat": 52.6665955, "lon": -8.6393793}, {"type": "node", "id": 8176072309, "lat": 52.6663813, "lon": -8.639732}, {"type": "node", "id": 8176072310, "lat": 52.666388, "lon": -8.639464}, {"type": "node", "id": 8176072311, "lat": 52.6664293, "lon": -8.6394658}, {"type": "node", "id": 8176072312, "lat": 52.666426, "lon": -8.6395899}, {"type": "node", "id": 8176072313, "lat": 52.6664495, "lon": -8.6395915}, {"type": "node", "id": 8176072314, "lat": 52.6664457, "lon": -8.6397372}, {"type": "node", "id": 8176072315, "lat": 52.6663421, "lon": -8.6394609}, {"type": "node", "id": 8176072316, "lat": 52.6663391, "lon": -8.6395811}, {"type": "node", "id": 8176072317, "lat": 52.6663116, "lon": -8.6395793}, {"type": "node", "id": 8176072318, "lat": 52.6663079, "lon": -8.639727}, {"type": "node", "id": 8303912948, "lat": 52.6666626, "lon": -8.6391187}, {"type": "node", "id": 8303912949, "lat": 52.6666657, "lon": -8.6390201}, {"type": "node", "id": 8303912950, "lat": 52.6665811, "lon": -8.639013}, {"type": "node", "id": 8303912951, "lat": 52.6665781, "lon": -8.6391116}, {"type": "node", "id": 8303912952, "lat": 52.6666679, "lon": -8.6389224}, {"type": "node", "id": 8303912953, "lat": 52.6665823, "lon": -8.6389176}, {"type": "node", "id": 8303912954, "lat": 52.6666694, "lon": -8.6388227}, {"type": "node", "id": 8303912955, "lat": 52.666585, "lon": -8.638818}, {"type": "node", "id": 12017220990, "lat": 52.6664039, "lon": -8.63921}, {"type": "node", "id": 12017220991, "lat": 52.6664068, "lon": -8.6391095}, {"type": "node", "id": 12017220992, "lat": 52.6663377, "lon": -8.6391041}, {"type": "node", "id": 12017220993, "lat": 52.6663348, "lon": -8.6392046}, {"type": "way", "id": 843426929, "nodes": [7867553359, 7867553360, 7867553361, 7867553362, 7867553359], "tags": {"addr:housenumber": "6", "addr:street": "Ennis Road", "building": "house", "building:levels": "2", "house": "terraced", "roof:levels": "1"}}, {"type": "way", "id": 878861898, "nodes": [8176072297, 8176072298, 8176072301, 8176072302, 8176072297], "tags": {"addr:housename": "Tara", "addr:street": "Ennis Road", "building": "house", "building:levels": "2", "house": "semi-detached", "roof:shape": "hipped"}}, {"type": "way", "id": 878861899, "nodes": [8176072297, 8176072303, 8176072306, 8176072307, 8176072308, 8176072298, 8176072297], "tags": {"addr:housename": "Tyone", "addr:street": "Ennis Road", "building": "house", "building:levels": "2", "house": "semi-detached"}}, {"type": "way", "id": 878861900, "nodes": [8176072309, 8176072310, 8176072311, 8176072312, 8176072313, 8176072314, 8176072309], "tags": {"addr:housename": "Northesk", "addr:street": "Shelbourne Road Lower", "building": "house", "building:levels": "2", "house": "semi-detached", "roof:shape": "gabled"}}, {"type": "way", "id": 878861901, "nodes": [8176072310, 8176072315, 8176072316, 8176072317, 8176072318, 8176072309, 8176072310], "tags": {"addr:housename": "Westview", "addr:street": "Shelbourne Road Lower", "building": "house", "building:levels": "2", "house": "semi-detached", "roof:shape": "gabled"}}, {"type": "way", "id": 893449917, "nodes": [7867553362, 8303912948, 8303912951, 7867553361, 7867553362], "tags": {"addr:housename": "Rosemount", "addr:housenumber": "5", "addr:street": "Ennis Road", "building": "house", "building:levels": "2", "house": "terraced", "roof:levels": "1"}}, {"type": "way", "id": 893449918, "nodes": [8303912948, 8303912949, 8303912950, 8303912951, 8303912948], "tags": {"addr:housenumber": "4", "addr:street": "Ennis Road", "building": "house", "building:levels": "2", "house": "terraced", "roof:levels": "1"}}, {"type": "way", "id": 893449919, "nodes": [8303912949, 8303912952, 8303912953, 8303912950, 8303912949], "tags": {"addr:housename": "Bon-Accord", "addr:housenumber": "3", "addr:street": "Ennis Road", "building": "house", "building:levels": "2", "house": "terraced", "roof:levels": "1"}}, {"type": "way", "id": 893449920, "nodes": [8303912952, 8303912954, 8303912955, 8303912953, 8303912952], "tags": {"addr:housenumber": "2", "addr:street": "Ennis Road", "building": "house", "building:levels": "2", "house": "terraced", "roof:levels": "1"}}, {"type": "way", "id": 1296948504, "nodes": [12017220990, 12017220991, 12017220992, 12017220993, 12017220990], "tags": {"building": "yes"}}]}