{"version": 0.6, "generator": "Overpass API 0.7.62.8 e802775f", "osm3s": {"timestamp_osm_base": "2025-11-07T16:20:44Z", "copyright": "The data included in this document is from www.openstreetmap.org. The data is made available under ODbL."}, "elements": [{"type": "node", "id": 393874721, "lat": 53.2745085, "lon": -9.0505051}, {"type": "node", "id": 393874722, "lat": 53.2745512, "lon": -9.0506424}, {"type": "node", "id": 393874723, "lat": 53.2746845, "lon": -9.0506458}, {"type": "node", "id": 393874724, "lat": 53.2747616, "lon": -9.0504993}, {"type": "node", "id": 393874726, "lat": 53.2750844, "lon": -9.0497512}, {"type": "node", "id": 393874727, "lat": 53.2752279, "lon": -9.0494806, "tags": {"crossing": "uncontrolled", "crossing:island": "no", "crossing:markings": "lines", "highway": "crossing", "tactile_paving": "no", "traffic_calming": "table"}}, {"type": "node", "id": 393874728, "lat": 53.2755234, "lon": -9.0488213}, {"type": "node", "id": 393874729, "lat": 53.275536, "lon": -9.0486121}, {"type": "node", "id": 403304281, "lat": 53.2750152, "lon": -9.0491153}, {"type": "node", "id": 416376731, "lat": 53.2758932, "lon": -9.048198}, {"type": "node", "id": 1449666331, "lat": 53.2752824, "lon": -9.0489285}, {"type": "node", "id": 1742805046, "lat": 53.2753673, "lon": -9.0488011}, {"type": "node", "id": 1742819713, "lat": 53.2752819, "lon": -9.0495273}, {"type": "node", "id": 1742819714, "lat": 53.2753815, "lon": -9.0496511}, {"type": "node", "id": 1742819717, "lat": 53.2753791, "lon": -9.0495164}, {"type": "node", "id": 1742819719, "lat": 53.2754473, "lon": -9.0495576}, {"type": "node", "id": 1742819722, "lat": 53.275434, "lon": -9.0495908}, {"type": "node", "id": 1742819723, "lat": 53.2754238, "lon": -9.049206}, {"type": "node", "id": 1742819731, "lat": 53.2754971, "lon": -9.0490373}, {"type": "node", "id": 1742819740, "lat": 53.2755775, "lon": -9.0488334}, {"type": "node", "id": 1742819741, "lat": 53.2756018, "lon": -9.04928}, {"type": "node", "id": 1742819743, "lat": 53.2755815, "lon": -9.0491755}, {"type": "node", "id": 1742819745, "lat": 53.2755981, "lon": -9.0493645}, {"type": "node", "id": 1742819746, "lat": 53.275679, "lon": -9.0493491}, {"type": "node", "id": 1742819749, "lat": 53.2756823, "lon": -9.0492145}, {"type": "node", "id": 1742819752, "lat": 53.2757565, "lon": -9.0490204}, {"type": "node", "id": 1743755488, "lat": 53.2750177, "lon": -9.0489666}, {"type": "node", "id": 1743755489, "lat": 53.275036, "lon": -9.048624}, {"type": "node", "id": 1743755491, "lat": 53.275062, "lon": -9.0487634}, {"type": "node", "id": 1743755494, "lat": 53.2750889, "lon": -9.0490646}, {"type": "node", "id": 1743755496, "lat": 53.2750971, "lon": -9.0485078}, {"type": "node", "id": 1743755498, "lat": 53.2750957, "lon": -9.0488182}, {"type": "node", "id": 1743755500, "lat": 53.2750884, "lon": -9.0487186}, {"type": "node", "id": 1743755510, "lat": 53.2751405, "lon": -9.048979}, {"type": "node", "id": 1743755517, "lat": 53.2751888, "lon": -9.048899}, {"type": "node", "id": 1743755531, "lat": 53.2752435, "lon": -9.0488082}, {"type": "node", "id": 1743755810, "lat": 53.2758353, "lon": -9.0482647}, {"type": "node", "id": 8018472287, "lat": 53.2752701, "lon": -9.0492249, "tags": {"access": "yes", "amenity": "bicycle_parking", "bicycle_parking": "stands", "capacity": "10", "covered": "no", "fee": "no"}}, {"type": "node", "id": 8018863224, "lat": 53.275286, "lon": -9.0491892, "tags": {"natural": "tree"}}, {"type": "node", "id": 8018863225, "lat": 53.2753147, "lon": -9.0491248, "tags": {"natural": "tree"}}, {"type": "node", "id": 8018863226, "lat": 53.2753542, "lon": -9.0490361, "tags": {"natural": "tree"}}, {"type": "node", "id": 8018863227, "lat": 53.2753949, "lon": -9.0489445, "tags": {"natural": "tree"}}, {"type": "node", "id": 8018863228, "lat": 53.2754281, "lon": -9.0488699, "tags": {"natural": "tree"}}, {"type": "node", "id": 8018863229, "lat": 53.2753004, "lon": -9.0491569, "tags": {"access": "yes", "amenity": "bicycle_parking", "bicycle_parking": "stands", "capacity": "10", "covered": "no", "fee": "no"}}, {"type": "node", "id": 8018863230, "lat": 53.2753363, "lon": -9.0490763, "tags": {"access": "yes", "amenity": "bicycle_parking", "bicycle_parking": "stands", "capacity": "10", "covered": "no", "fee": "no"}}, {"type": "node", "id": 8018863231, "lat": 53.2753744, "lon": -9.0489908, "tags": {"access": "yes", "amenity": "bicycle_parking", "bicycle_parking": "stands", "capacity": "10", "covered": "no", "fee": "no"}}, {"type": "node", "id": 8018863232, "lat": 53.2754125, "lon": -9.048905, "tags": {"access": "yes", "amenity": "bicycle_parking", "bicycle_parking": "stands", "capacity": "12", "covered": "no", "fee": "no"}}, {"type": "node", "id": 8832491541, "lat": 53.2753195, "lon": -9.0494424}, {"type": "node", "id": 8832491542, "lat": 53.2753666, "lon": -9.0493344}, {"type": "node", "id": 8832491543, "lat": 53.275486, "lon": -9.0494603}, {"type": "node", "id": 8832491544, "lat": 53.2755059, "lon": -9.0494786}, {"type": "node", "id": 8895543202, "lat": 53.2747248, "lon": -9.0505795}, {"type": "node", "id": 8895543203, "lat": 53.2746505, "lon": -9.0506693}, {"type": "node", "id": 8895543204, "lat": 53.274611, "lon": -9.0506792}, {"type": "node", "id": 9364060285, "lat": 53.2754573, "lon": -9.0491869, "tags": {"addr:city": "Galway", "addr:housenumber": "3", "addr:street": "Prospect Hill", "amenity": "restaurant", "contact:website": "https://charcoalgrilltakeaway.com/", "cuisine": "turkish", "name": "The Charcoal Grill", "name:en": "The Charcoal Grill", "opening_hours": "Mo-Su 11:30-00:30"}}, {"type": "node", "id": 9418933084, "lat": 53.2752445, "lon": -9.0493887}, {"type": "node", "id": 9418933085, "lat": 53.2754879, "lon": -9.0488578}, {"type": "node", "id": 9418933086, "lat": 53.2754757, "lon": -9.048841}, {"type": "node", "id": 9418933087, "lat": 53.2752472, "lon": -9.0493382}, {"type": "node", "id": 9418933088, "lat": 53.275258, "lon": -9.0492969}, {"type": "node", "id": 9438305850, "lat": 53.2750715, "lon": -9.0488671}, {"type": "node", "id": 9439045560, "lat": 53.2756646, "lon": -9.0492691}, {"type": "node", "id": 9439045561, "lat": 53.2756954, "lon": -9.0492976}, {"type": "node", "id": 9493759438, "lat": 53.2753431, "lon": -9.0460971}, {"type": "node", "id": 9530756130, "lat": 53.275172, "lon": -9.0492642}, {"type": "node", "id": 9530756131, "lat": 53.2752386, "lon": -9.0490999}, {"type": "node", "id": 9530756132, "lat": 53.2753282, "lon": -9.0489165}, {"type": "node", "id": 9530756133, "lat": 53.2753756, "lon": -9.0488556}, {"type": "node", "id": 9530756134, "lat": 53.2754273, "lon": -9.0488027}, {"type": "node", "id": 9530756135, "lat": 53.2753416, "lon": -9.0489714}, {"type": "node", "id": 9530756136, "lat": 53.2752535, "lon": -9.0491513}, {"type": "node", "id": 9530756137, "lat": 53.2752201, "lon": -9.0492042}, {"type": "node", "id": 9548327889, "lat": 53.2752871, "lon": -9.0489954}, {"type": "node", "id": 9548334062, "lat": 53.2752023, "lon": -9.0491335}, {"type": "node", "id": 9548334069, "lat": 53.2751376, "lon": -9.0492758, "tags": {"button_operated": "yes", "crossing": "traffic_signals", "crossing:island": "no", "crossing:markings": "lines", "highway": "crossing", "tactile_paving": "yes", "traffic_calming": "table", "traffic_signals:sound": "yes", "traffic_signals:vibration": "no"}}, {"type": "node", "id": 9548334070, "lat": 53.275171, "lon": -9.0490953}, {"type": "node", "id": 9548334071, "lat": 53.2751357, "lon": -9.0491255}, {"type": "node", "id": 9548334072, "lat": 53.2751037, "lon": -9.0491336, "tags": {"button_operated": "yes", "crossing": "traffic_signals", "crossing:island": "no", "crossing:markings": "lines", "highway": "crossing", "tactile_paving": "yes", "traffic_calming": "table", "traffic_signals:sound": "yes", "traffic_signals:vibration": "no"}}, {"type": "node", "id": 9548334073, "lat": 53.2750648, "lon": -9.0491335}, {"type": "node", "id": 9909803788, "lat": 53.2754126, "lon": -9.0492907, "tags": {"brand": "BoyleSports", "brand:wikidata": "Q56760280", "name": "BoyleSports", "shop": "bookmaker"}}, {"type": "node", "id": 9925201798, "lat": 53.2754048, "lon": -9.0495986}, {"type": "node", "id": 9939055183, "lat": 53.2754827, "lon": -9.049119, "tags": {"addr:city": "Galway", "addr:housenumber": "5", "addr:street": "Prospect Hill", "name": "Threshold", "office": "charity", "website": "https://www.threshold.ie/"}}, {"type": "node", "id": 9939055184, "lat": 53.2753578, "lon": -9.0494149, "tags": {"addr:city": "Galway", "addr:county": "Galway", "addr:housenumber": "47", "addr:postcode": "H91 C1HW", "addr:street": "Eyre Square", "amenity": "pub", "name": "Kennedy\u2019s", "wheelchair": "limited"}}, {"type": "node", "id": 9939055188, "lat": 53.2755923, "lon": -9.0491445}, {"type": "node", "id": 9939055189, "lat": 53.2755598, "lon": -9.0493235}, {"type": "node", "id": 9939055190, "lat": 53.2755464, "lon": -9.0492339}, {"type": "node", "id": 9939055191, "lat": 53.2754544, "lon": -9.0491359}, {"type": "node", "id": 9939055192, "lat": 53.275559, "lon": -9.0491563}, {"type": "node", "id": 9939055193, "lat": 53.2754833, "lon": -9.0490717}, {"type": "node", "id": 9939055194, "lat": 53.2755727, "lon": -9.0491219}, {"type": "node", "id": 9939055195, "lat": 53.275571, "lon": -9.04917}, {"type": "node", "id": 9939055196, "lat": 53.2755823, "lon": -9.0492676}, {"type": "node", "id": 9939055197, "lat": 53.2755919, "lon": -9.049187}, {"type": "node", "id": 9939055198, "lat": 53.2755853, "lon": -9.0492042}, {"type": "node", "id": 9939055199, "lat": 53.2756158, "lon": -9.0492345}, {"type": "node", "id": 9939055202, "lat": 53.2756213, "lon": -9.0492976}, {"type": "node", "id": 9939055206, "lat": 53.275486, "lon": -9.0492676}, {"type": "node", "id": 9939055208, "lat": 53.2755614, "lon": -9.0495113}, {"type": "node", "id": 9939055210, "lat": 53.2753647, "lon": -9.0495488}, {"type": "node", "id": 10761197177, "lat": 53.2745778, "lon": -9.0506759}, {"type": "node", "id": 10761197179, "lat": 53.2745914, "lon": -9.0505496, "tags": {"barrier": "kerb", "kerb": "flush", "tactile_paving": "yes", "wheelchair": "yes"}}, {"type": "node", "id": 10761197180, "lat": 53.2745361, "lon": -9.0505937, "tags": {"crossing": "uncontrolled", "crossing:island": "no", "crossing:markings": "lines", "highway": "crossing", "tactile_paving": "yes", "traffic_calming": "table"}}, {"type": "node", "id": 10761197188, "lat": 53.2751171, "lon": -9.0492499, "tags": {"barrier": "kerb", "kerb": "flush", "tactile_paving": "yes", "wheelchair": "yes"}}, {"type": "node", "id": 10761197189, "lat": 53.2751548, "lon": -9.0492975, "tags": {"barrier": "kerb", "kerb": "flush", "tactile_paving": "yes", "wheelchair": "yes"}}, {"type": "node", "id": 10761197191, "lat": 53.2752573, "lon": -9.049518, "tags": {"barrier": "kerb", "kerb": "flush", "tactile_paving": "no", "wheelchair": "yes"}}, {"type": "node", "id": 10761197192, "lat": 53.2752005, "lon": -9.0494453, "tags": {"barrier": "kerb", "kerb": "flush", "tactile_paving": "no", "wheelchair": "yes"}}, {"type": "node", "id": 10761197193, "lat": 53.2751766, "lon": -9.049436}, {"type": "node", "id": 10761197194, "lat": 53.2751615, "lon": -9.0494255}, {"type": "node", "id": 10761197195, "lat": 53.2751466, "lon": -9.0494024}, {"type": "node", "id": 10761197196, "lat": 53.2751406, "lon": -9.0493776}, {"type": "node", "id": 10761197197, "lat": 53.2751627, "lon": -9.0493065}, {"type": "node", "id": 10761197198, "lat": 53.2751422, "lon": -9.0493587}, {"type": "node", "id": 10761236488, "lat": 53.2755048, "lon": -9.0460744}, {"type": "node", "id": 10761236489, "lat": 53.275668, "lon": -9.0461054}, {"type": "node", "id": 10761236490, "lat": 53.2757384, "lon": -9.0461265}, {"type": "node", "id": 10761236491, "lat": 53.2758074, "lon": -9.0461643}, {"type": "node", "id": 10761236492, "lat": 53.2758658, "lon": -9.046212}, {"type": "node", "id": 10761236493, "lat": 53.2759328, "lon": -9.0462919}, {"type": "node", "id": 10761236494, "lat": 53.2759866, "lon": -9.0463618}, {"type": "node", "id": 10761236495, "lat": 53.2760357, "lon": -9.0464384}, {"type": "node", "id": 10761236496, "lat": 53.2764047, "lon": -9.0475188}, {"type": "node", "id": 10761236497, "lat": 53.2763994, "lon": -9.0475594}, {"type": "node", "id": 10761236498, "lat": 53.2763855, "lon": -9.0475838}, {"type": "node", "id": 10761236499, "lat": 53.2760722, "lon": -9.0479035}, {"type": "node", "id": 10761236500, "lat": 53.2759209, "lon": -9.0480278}, {"type": "node", "id": 10761236501, "lat": 53.2757934, "lon": -9.048165}, {"type": "node", "id": 10761236502, "lat": 53.2756103, "lon": -9.0483729}, {"type": "node", "id": 10761236503, "lat": 53.2753933, "lon": -9.0486382}, {"type": "node", "id": 10761236504, "lat": 53.2752858, "lon": -9.0487747}, {"type": "node", "id": 10761244008, "lat": 53.2751, "lon": -9.0490648}, {"type": "node", "id": 10761244019, "lat": 53.2747309, "lon": -9.050358}, {"type": "node", "id": 10761244020, "lat": 53.2746929, "lon": -9.0504122}, {"type": "node", "id": 10761244021, "lat": 53.2746105, "lon": -9.0505346}, {"type": "node", "id": 10761326005, "lat": 53.2752074, "lon": -9.0488968}, {"type": "node", "id": 10761326006, "lat": 53.2751338, "lon": -9.0490289}, {"type": "node", "id": 10761326007, "lat": 53.2751185, "lon": -9.0490555}, {"type": "node", "id": 10761326009, "lat": 53.2763792, "lon": -9.0474157}, {"type": "node", "id": 10761326010, "lat": 53.2763367, "lon": -9.0472757}, {"type": "node", "id": 10761326011, "lat": 53.2762255, "lon": -9.0469359}, {"type": "node", "id": 10761326012, "lat": 53.2761313, "lon": -9.0466527}, {"type": "node", "id": 10761326013, "lat": 53.2760776, "lon": -9.0465228}, {"type": "node", "id": 10761326015, "lat": 53.2754439, "lon": -9.0460707}, {"type": "node", "id": 10761326016, "lat": 53.2753928, "lon": -9.0460813}, {"type": "node", "id": 10777903100, "lat": 53.2763985, "lon": -9.0474827}, {"type": "way", "id": 34335657, "nodes": [393874729, 393874728, 393874727, 393874726, 393874724, 8895543202, 393874723, 8895543203, 8895543204, 10761197177, 393874722, 10761197180, 393874721], "tags": {"cycleway:left": "no", "highway": "unclassified", "lanes": "1", "lit": "yes", "maxspeed": "30", "oneway": "yes", "sidewalk": "both", "surface": "asphalt"}}, {"type": "way", "id": 131754373, "nodes": [1449666331, 1742805046, 393874729, 1743755810, 416376731], "tags": {"cycleway:left": "no", "highway": "secondary", "lanes": "2", "lit": "yes", "mapillary": "311005570544225", "maxspeed": "30", "name": "Prospect Hill", "name:en": "Prospect Hill", "name:ga": "Cnoc na Radharc", "oneway": "yes", "ref": "R336", "sidewalk:left": "yes", "sidewalk:right": "separate", "surface": "asphalt", "survey:date": "2015-10-01"}}, {"type": "way", "id": 162377560, "nodes": [1742819723, 8832491542, 8832491543, 8832491544, 9939055208, 1742819745, 9939055189, 9939055206, 1742819723], "tags": {"building": "retail", "building:levels": "4", "name": "American House"}}, {"type": "way", "id": 162377564, "nodes": [1742819740, 1742819752, 1742819749, 9439045560, 9439045561, 1742819746, 9939055202, 1742819741, 9939055199, 9939055198, 9939055197, 1742819743, 9939055188, 9939055194, 1742819731, 1742819740], "tags": {"addr:city": "Galway", "addr:country": "IE", "addr:county": "Galway", "addr:housenumber": "9-11", "addr:postcode": "H91 VK27", "addr:street": "Prospect Hill", "building": "yes", "building:levels": "3", "wheelchair": "yes"}}, {"type": "way", "id": 162377565, "nodes": [8832491541, 1742819713, 1742819714, 9925201798, 9939055210, 1742819717, 8832491541], "tags": {"addr:city": "Galway", "addr:housenumber": "46", "addr:street": "Eyre Square", "building": "commercial", "building:levels": "3", "name": "Cleggan House"}}, {"type": "way", "id": 162504917, "nodes": [1743755494, 1743755510, 9438305850, 1743755488, 1743755494], "tags": {"addr:city": "Galway", "addr:country": "IE", "addr:county": "Galway", "addr:housenumber": "1", "addr:postcode": "H91 ED70", "addr:street": "Eyre Square", "building": "yes", "building:levels": "4", "wheelchair": "yes"}}, {"type": "way", "id": 162504933, "nodes": [1743755510, 1743755517, 1743755500, 1743755491, 1743755498, 9438305850, 1743755510], "tags": {"addr:city": "Galway", "addr:housenumber": "2", "addr:street": "Prospect Hill", "building": "retail", "building:levels": "3"}}, {"type": "way", "id": 162504935, "nodes": [1743755517, 1743755531, 1743755496, 1743755489, 1743755500, 1743755517], "tags": {"addr:city": "Galway", "addr:housenumber": "4", "addr:street": "Prospect Hill", "building": "commercial", "building:levels": "3"}}, {"type": "way", "id": 954312295, "nodes": [1742819722, 1742819719, 8832491543, 8832491542, 8832491541, 1742819717, 1742819722], "tags": {"addr:city": "Galway", "addr:country": "IE", "addr:county": "Galway", "addr:housenumber": "47", "addr:postcode": "H91 C1HW", "addr:street": "Eyre Square", "building": "retail", "building:levels": "3", "wheelchair": "limited"}}, {"type": "way", "id": 1021239869, "nodes": [9418933084, 9418933085, 9418933086, 9418933088, 9418933087, 9418933084], "tags": {"amenity": "taxi"}}, {"type": "way", "id": 1034601389, "nodes": [9530756130, 9530756131, 9548327889, 9530756132, 9530756133, 9530756134, 9530756135, 9530756136, 9530756137, 9530756130], "tags": {"amenity": "taxi"}}, {"type": "way", "id": 1036394183, "nodes": [9548334069, 9548334062, 1449666331], "tags": {"cycleway:left": "no", "highway": "secondary", "lanes": "1", "lit": "yes", "maxspeed": "30", "name": "Prospect Hill", "name:en": "Prospect Hill", "name:ga": "Cnoc na Radharc", "oneway": "yes", "ref": "R336", "sidewalk:left": "yes", "sidewalk:right": "separate", "surface": "asphalt"}}, {"type": "way", "id": 1036394186, "nodes": [403304281, 9548334073, 9548334072, 9548334071, 9548334070, 1449666331], "tags": {"cycleway:left": "no", "highway": "secondary", "lanes": "1", "lit": "yes", "maxspeed": "30", "name": "Prospect Hill", "name:en": "Prospect Hill", "name:ga": "Cnoc na Radharc", "oneway": "yes", "ref": "R336", "sidewalk": "separate", "surface": "asphalt"}}, {"type": "way", "id": 1084618176, "nodes": [9939055189, 9939055196, 9939055190, 9939055191, 1742819723, 9939055206, 9939055189], "tags": {"addr:city": "Galway", "addr:housenumber": "3", "addr:street": "Prospect Hill", "building": "yes", "building:levels": "2"}}, {"type": "way", "id": 1084618177, "nodes": [9939055190, 9939055195, 9939055192, 9939055193, 9939055191, 9939055190], "tags": {"addr:city": "Galway", "addr:housenumber": "5", "addr:street": "Prospect Hill", "building": "yes", "building:levels": "2"}}, {"type": "way", "id": 1084618178, "nodes": [9939055192, 9939055194, 1742819731, 9939055193, 9939055192], "tags": {"building": "yes", "building:levels": "2"}}, {"type": "way", "id": 1157192152, "nodes": [10761197188, 9548334069, 10761197189], "tags": {"button_operated": "yes", "crossing": "traffic_signals", "crossing:island": "no", "crossing:markings": "lines", "footway": "crossing", "highway": "footway", "lit": "yes", "surface": "paving_stones", "tactile_paving": "yes", "traffic_calming": "table", "traffic_signals:sound": "yes"}}, {"type": "way", "id": 1157192157, "nodes": [10761197191, 393874727, 10761197192], "tags": {"crossing": "uncontrolled", "crossing:island": "no", "crossing:markings": "lines", "footway": "crossing", "highway": "footway", "lit": "yes", "surface": "asphalt", "tactile_paving": "no", "traffic_calming": "table"}}, {"type": "way", "id": 1157192158, "nodes": [10761197192, 10761197193, 10761197194, 10761197195, 10761197196, 10761197198, 10761197197, 10761197189], "tags": {"footway": "sidewalk", "highway": "footway", "lit": "yes", "surface": "paving_stones"}}, {"type": "way", "id": 1157192168, "nodes": [10761197179, 10761244021, 10761244020, 10761244019, 10761197195], "tags": {"footway": "sidewalk", "highway": "footway", "lit": "yes", "surface": "paving_stones"}}, {"type": "way", "id": 1157199703, "nodes": [9493759438, 10761326016, 10761326015, 10761236488, 10761236489, 10761236490, 10761236491, 10761236492, 10761236493, 10761236494, 10761236495, 10761326013, 10761326012, 10761326011, 10761326010, 10761326009, 10777903100, 10761236496, 10761236497, 10761236498, 10761236499, 10761236500, 10761236501, 10761236502, 10761236503, 10761236504, 10761326005, 10761326006, 10761326007, 10761244008], "tags": {"footway": "sidewalk", "highway": "footway", "lit": "yes", "surface": "concrete"}}]}