{"version": 0.6, "generator": "Overpass API 0.7.62.8 e802775f", "osm3s": {"timestamp_osm_base": "2025-11-08T08:00:14Z", "copyright": "The data included in this document is from www.openstreetmap.org. The data is made available under ODbL."}, "elements": [{"type": "node", "id": 250559085, "lat": 52.6632296, "lon": -8.6273461, "tags": {"crossing": "marked", "crossing:markings": "yes", "highway": "crossing", "tactile_paving": "yes"}}, {"type": "node", "id": 250634253, "lat": 52.6635256, "lon": -8.6259531}, {"type": "node", "id": 250634254, "lat": 52.6629541, "lon": -8.6266288}, {"type": "node", "id": 1021255408, "lat": 52.6626374, "lon": -8.6260556, "tags": {"direction": "forward", "highway": "stop"}}, {"type": "node", "id": 1153805504, "lat": 52.6623552, "lon": -8.6270322}, {"type": "node", "id": 1153805562, "lat": 52.6623121, "lon": -8.6274164}, {"type": "node", "id": 1153805612, "lat": 52.6624893, "lon": -8.6265359}, {"type": "node", "id": 1153805621, "lat": 52.6623572, "lon": -8.6270976}, {"type": "node", "id": 1153805653, "lat": 52.6626899, "lon": -8.6261364}, {"type": "node", "id": 1153805667, "lat": 52.6624482, "lon": -8.627344}, {"type": "node", "id": 1153805715, "lat": 52.6624244, "lon": -8.6264292}, {"type": "node", "id": 1233664519, "lat": 52.6625448, "lon": -8.6268238}, {"type": "node", "id": 1233664533, "lat": 52.6623638, "lon": -8.6275191}, {"type": "node", "id": 1233664549, "lat": 52.6629106, "lon": -8.6267077}, {"type": "node", "id": 1233664588, "lat": 52.6623733, "lon": -8.6270817}, {"type": "node", "id": 1307323206, "lat": 52.6624254, "lon": -8.6262857}, {"type": "node", "id": 1347765566, "lat": 52.6627324, "lon": -8.6260382}, {"type": "node", "id": 1460572850, "lat": 52.6626688, "lon": -8.625923}, {"type": "node", "id": 1460573001, "lat": 52.6618648, "lon": -8.6268747}, {"type": "node", "id": 2992343504, "lat": 52.6623875, "lon": -8.6263268}, {"type": "node", "id": 2992343505, "lat": 52.6624542, "lon": -8.6265747}, {"type": "node", "id": 2992343506, "lat": 52.6624713, "lon": -8.6265561}, {"type": "node", "id": 2992343509, "lat": 52.6626624, "lon": -8.6269909}, {"type": "node", "id": 2992343511, "lat": 52.6629754, "lon": -8.6266869, "tags": {"barrier": "bollard", "bollard": "rising"}}, {"type": "node", "id": 3667615965, "lat": 52.6630131, "lon": -8.6262746}, {"type": "node", "id": 3667615966, "lat": 52.6629356, "lon": -8.626358}, {"type": "node", "id": 3667615967, "lat": 52.6629939, "lon": -8.6262284}, {"type": "node", "id": 3667615968, "lat": 52.6629154, "lon": -8.6263075}, {"type": "node", "id": 4030104135, "lat": 52.6629203, "lon": -8.626228, "tags": {"addr:city": "Limerick", "addr:housenumber": "9", "addr:street": "Thomas Street", "amenity": "restaurant", "name": "Big Bowl PHO", "opening_hours": "Tu-Su 11:30-20:30"}}, {"type": "node", "id": 4030104136, "lat": 52.6628684, "lon": -8.6260491, "tags": {"addr:city": "Limerick", "addr:housenumber": "11", "addr:street": "Thomas Street", "amenity": "fast_food", "check_date": "2024-01-28", "cuisine": "noodle;salad", "name": "Mr Noodle", "opening_hours": "Mo,We-Sa 13:00-23:00; Tu,Su 14:00-23:00", "phone": "+353 61 406 999", "wheelchair": "yes"}}, {"type": "node", "id": 4030104142, "lat": 52.6627155, "lon": -8.6259926}, {"type": "node", "id": 4030104143, "lat": 52.6626635, "lon": -8.6260013}, {"type": "node", "id": 4506744736, "lat": 52.6627206, "lon": -8.6263299, "tags": {"addr:city": "Limerick", "addr:county": "Limerick", "addr:housenumber": "49", "addr:postcode": "V94 PN40", "addr:street": "Thomas Street", "amenity": "restaurant", "check_date": "2023-12-15", "cuisine": "burger", "name": "CoqBull", "wheelchair": "limited"}}, {"type": "node", "id": 4512728824, "lat": 52.6627917, "lon": -8.62598}, {"type": "node", "id": 4519422453, "lat": 52.6629562, "lon": -8.626305, "tags": {"check_date": "2024-01-28", "name": "Sexton, for Men", "shop": "clothes", "wheelchair": "yes"}}, {"type": "node", "id": 4519820990, "lat": 52.6628768, "lon": -8.6258928}, {"type": "node", "id": 4519820991, "lat": 52.6629024, "lon": -8.6259606}, {"type": "node", "id": 4519820992, "lat": 52.6628173, "lon": -8.6260478}, {"type": "node", "id": 4519820993, "lat": 52.6629314, "lon": -8.6260376}, {"type": "node", "id": 4519820994, "lat": 52.6628464, "lon": -8.6261248}, {"type": "node", "id": 4519820995, "lat": 52.6629607, "lon": -8.6261153}, {"type": "node", "id": 4519820996, "lat": 52.6628757, "lon": -8.6262025}, {"type": "node", "id": 4519820997, "lat": 52.6630007, "lon": -8.6262231}, {"type": "node", "id": 4523172042, "lat": 52.6624357, "lon": -8.6264141}, {"type": "node", "id": 4523172043, "lat": 52.6626735, "lon": -8.6262825}, {"type": "node", "id": 4523172044, "lat": 52.6626247, "lon": -8.6263339}, {"type": "node", "id": 4523172045, "lat": 52.6626065, "lon": -8.6263584}, {"type": "node", "id": 4523172046, "lat": 52.6626106, "lon": -8.6263729}, {"type": "node", "id": 4523172047, "lat": 52.6624744, "lon": -8.6265114}, {"type": "node", "id": 4523182822, "lat": 52.6628679, "lon": -8.6265999}, {"type": "node", "id": 4523182823, "lat": 52.6628339, "lon": -8.6265104}, {"type": "node", "id": 4523182824, "lat": 52.6628151, "lon": -8.6266551}, {"type": "node", "id": 4523182825, "lat": 52.6627816, "lon": -8.6265663}, {"type": "node", "id": 4523182826, "lat": 52.6632559, "lon": -8.6262729}, {"type": "node", "id": 4523182827, "lat": 52.6631072, "lon": -8.6264726}, {"type": "node", "id": 5003987721, "lat": 52.6627506, "lon": -8.6264446, "tags": {"addr:city": "Limerick", "addr:housenumber": "50", "addr:street": "Thomas Street", "name": "Able Marketing", "office": "marketing"}}, {"type": "node", "id": 5003987722, "lat": 52.6627391, "lon": -8.6264247, "tags": {"man_made": "surveillance", "name": "Synergy Security Solutions"}}, {"type": "node", "id": 5003987724, "lat": 52.6628444, "lon": -8.6260525, "tags": {"addr:city": "Limerick", "addr:housenumber": "11", "addr:street": "Thomas Street", "name": "Gavin & Moore", "shop": "hairdresser"}}, {"type": "node", "id": 5003987725, "lat": 52.6628548, "lon": -8.6260887, "tags": {"addr:city": "Limerick", "addr:housenumber": "11", "addr:street": "Thomas Street", "check_date": "2024-01-28", "name": "Dee Vaughan's Hair Salon", "phone": "+353 61 415 675", "shop": "hairdresser"}}, {"type": "node", "id": 5003987726, "lat": 52.662894, "lon": -8.6261473, "tags": {"addr:city": "Limerick", "addr:housenumber": "10", "addr:street": "Thomas Street", "amenity": "clinic", "check_date": "2024-01-28", "healthcare": "clinic", "name": "The Foot Care Clinic", "phone": "+353 61 404 692"}}, {"type": "node", "id": 5016807799, "lat": 52.6625901, "lon": -8.6262445}, {"type": "node", "id": 5016807800, "lat": 52.662639, "lon": -8.6261932}, {"type": "node", "id": 5029075794, "lat": 52.6622021, "lon": -8.6275545}, {"type": "node", "id": 5029075796, "lat": 52.6622482, "lon": -8.6275029}, {"type": "node", "id": 5131479026, "lat": 52.6622625, "lon": -8.626602}, {"type": "node", "id": 5131479027, "lat": 52.6623104, "lon": -8.626726}, {"type": "node", "id": 5131479028, "lat": 52.6622191, "lon": -8.626822}, {"type": "node", "id": 5573727535, "lat": 52.6625007, "lon": -8.6263402}, {"type": "node", "id": 5573727536, "lat": 52.6625398, "lon": -8.6264449}, {"type": "node", "id": 5728749711, "lat": 52.6631945, "lon": -8.6272505, "tags": {"barrier": "bollard"}}, {"type": "node", "id": 5940779777, "lat": 52.6627594, "lon": -8.6264342, "tags": {"addr:city": "Limerick", "addr:housenumber": "50", "addr:street": "Thomas Street", "name": "Third Eye Tattoo Studio", "opening_hours": "Tu- Sa 10:30-17:30", "phone": "+353852304748", "shop": "tattoo", "wheelchair": "no"}}, {"type": "node", "id": 6660366995, "lat": 52.6630505, "lon": -8.626374}, {"type": "node", "id": 6660366996, "lat": 52.662973, "lon": -8.6264528}, {"type": "node", "id": 7529723022, "lat": 52.6624252, "lon": -8.6263781, "tags": {"barrier": "kerb", "kerb": "flush", "tactile_paving": "yes"}}, {"type": "node", "id": 7529723024, "lat": 52.6626682, "lon": -8.6261093}, {"type": "node", "id": 7529723025, "lat": 52.6626988, "lon": -8.6258886, "tags": {"barrier": "kerb", "check_date:tactile_paving": "2025-09-26", "kerb": "flush", "tactile_paving": "no"}}, {"type": "node", "id": 7529723026, "lat": 52.6626957, "lon": -8.626026, "tags": {"barrier": "kerb", "check_date:tactile_paving": "2025-09-26", "kerb": "flush", "tactile_paving": "no"}}, {"type": "node", "id": 7529723030, "lat": 52.6626976, "lon": -8.625966, "tags": {"crossing:markings": "no", "crossing:signals": "no", "highway": "crossing", "tactile_paving": "no"}}, {"type": "node", "id": 7529887784, "lat": 52.6634848, "lon": -8.6260015}, {"type": "node", "id": 11539971663, "lat": 52.6628755, "lon": -8.6260684, "tags": {"addr:city": "Limerick", "addr:housenumber": "11", "addr:postcode": "V94 KH64", "addr:street": "Thomas Street", "beauty": "skin_care", "check_date": "2024-01-28", "contact:facebook": "https://www.facebook.com/melissafergusonthefacialist/", "contact:instagram": "https://instagram.com/melissafergusonthefacialists", "contact:tiktok": "https://tiktok.com/@thefacialistmf", "email": "hello@facialist.ie", "name": "Melissa Ferguson Skin Studios", "opening_hours": "Mo-We 09:00-17:00; Th 11:00-19:00; Fr 09:00-17:00; Sa off; Su off", "payment:cash": "yes", "payment:credit_cards": "yes", "payment:debit_cards": "yes", "phone": "+353 85 800 0471", "shop": "beauty", "website": "https://facialist.ie"}}, {"type": "node", "id": 12328666506, "lat": 52.66192, "lon": -8.6268169, "tags": {"crossing:markings": "no", "crossing:signals": "no", "highway": "crossing", "tactile_paving": "yes"}}, {"type": "node", "id": 13175940296, "lat": 52.6621952, "lon": -8.627091}, {"type": "node", "id": 13175940297, "lat": 52.6622496, "lon": -8.6269}, {"type": "node", "id": 13175940298, "lat": 52.6621584, "lon": -8.6269945}, {"type": "node", "id": 13175940299, "lat": 52.662074, "lon": -8.6272186}, {"type": "way", "id": 23177798, "nodes": [250559085, 5728749711, 2992343511, 250634254, 1347765566], "tags": {"cycleway:both": "no", "highway": "unclassified", "lane_markings": "no", "lanes": "1", "lit": "yes", "logainm:ref": "1405059", "logainm:url": "https://www.logainm.ie/1405059.aspx", "name": "Thomas Street", "name:en": "Thomas Street", "name:ga": "Sr\u00e1id Thom\u00e1is", "oneway": "yes", "ref": "L10336", "source": "name: street sign", "surface": "sett", "wikidata": "Q7794239"}}, {"type": "way", "id": 23177799, "nodes": [250634254, 4523182827, 4523182826, 7529887784, 250634253], "tags": {"highway": "service", "name": "Little William Street", "name:ga": "Sr\u00e1id Beag Liam", "oneway": "yes", "surface": "asphalt"}}, {"type": "way", "id": 120139841, "nodes": [1347765566, 4030104142, 7529723030, 1460572850], "tags": {"cycleway:both": "no", "highway": "unclassified", "lane_markings": "no", "lanes": "1", "lit": "yes", "logainm:ref": "1405059", "logainm:url": "https://www.logainm.ie/1405059.aspx", "name": "Thomas Street", "name:en": "Thomas Street", "name:ga": "Sr\u00e1id Thom\u00e1is", "oneway": "yes", "ref": "L10336", "surface": "paving_stones", "wikidata": "Q7794239"}}, {"type": "way", "id": 295504218, "nodes": [13175940297, 13175940298, 13175940296, 13175940299, 5029075794, 5029075796, 1153805562, 1233664533, 1153805667, 1153805621, 1233664588, 1153805504, 1233664519, 2992343505, 2992343506, 1153805612, 2992343509, 1233664549, 4523182822, 4523182824, 4523182825, 4523182823, 1153805653, 5016807800, 4523172043, 4523172044, 4523172045, 4523172046, 5573727536, 4523172047, 4523172042, 1153805715, 5131479026, 5131479027, 5131479028, 13175940297], "tags": {"building": "yes"}}, {"type": "way", "id": 362455069, "nodes": [6660366995, 3667615965, 3667615966, 6660366996, 6660366995], "tags": {"building": "yes", "disused:building": "yes"}}, {"type": "way", "id": 362455070, "nodes": [3667615965, 3667615967, 3667615968, 3667615966, 3667615965], "tags": {"building": "yes"}}, {"type": "way", "id": 455591779, "nodes": [4519820990, 4519820991, 4519820992, 4512728824, 4519820990], "tags": {"building": "yes"}}, {"type": "way", "id": 455591780, "nodes": [4519820991, 4519820993, 4519820994, 4519820992, 4519820991], "tags": {"addr:city": "Limerick", "addr:housenumber": "11", "addr:postcode": "V94 KH64", "addr:street": "Thomas Street", "building": "yes", "fixme": "check what shops are still present here"}}, {"type": "way", "id": 455591781, "nodes": [4519820993, 4519820995, 4519820996, 4519820994, 4519820993], "tags": {"building": "retail"}}, {"type": "way", "id": 455591783, "nodes": [4519820995, 4519820997, 3667615967, 3667615968, 4519820996, 4519820995], "tags": {"building": "apartments"}}, {"type": "way", "id": 455950346, "nodes": [5016807799, 4523172044, 4523172045, 4523172046, 5573727536, 5573727535, 5016807799], "tags": {"amenity": "pub", "building": "yes", "check_date": "2024-01-28"}}, {"type": "way", "id": 455951745, "nodes": [4523182822, 4523182823, 4523182825, 4523182824, 4523182822], "tags": {"amenity": "fast_food", "building": "yes", "check_date": "2023-12-15", "cuisine": "sandwich", "level": "0", "name": "Sambros", "outdoor_seating": "no", "toilets": "yes", "wheelchair": "yes"}}, {"type": "way", "id": 513145635, "nodes": [5016807800, 4523172043, 4523172044, 5016807799, 5016807800], "tags": {"building": "commercial"}}, {"type": "way", "id": 603474149, "nodes": [1460573001, 12328666506, 2992343504, 1307323206, 1021255408, 4030104143, 1460572850], "tags": {"highway": "unclassified", "lanes": "1", "lit": "yes", "maxspeed": "50", "name": "Catherine Street", "name:ga": "Sr\u00e1id Chaitr\u00edona", "oneway": "yes", "smoothness": "excellent", "source": "names: street sign", "surface": "asphalt"}}, {"type": "way", "id": 805015455, "nodes": [7529723026, 7529723024, 7529723022], "tags": {"footway": "sidewalk", "highway": "footway", "lit": "yes", "surface": "paving_stones"}}, {"type": "way", "id": 805015457, "nodes": [7529723026, 7529723030, 7529723025], "tags": {"footway": "crossing", "highway": "footway", "lit": "yes", "surface": "sett"}}]}