{"version": 0.6, "generator": "Overpass API 0.7.62.8 e802775f", "osm3s": {"timestamp_osm_base": "2025-11-07T21:25:58Z", "copyright": "The data included in this document is from www.openstreetmap.org. The data is made available under ODbL."}, "elements": [{"type": "node", "id": 218478001, "lat": 52.6638204, "lon": -8.6266819}, {"type": "node", "id": 218478010, "lat": 52.66437, "lon": -8.6281613}, {"type": "node", "id": 250559085, "lat": 52.6632296, "lon": -8.6273461, "tags": {"crossing": "marked", "crossing:markings": "yes", "highway": "crossing", "tactile_paving": "yes"}}, {"type": "node", "id": 250587032, "lat": 52.6623172, "lon": -8.6228082, "tags": {"highway": "traffic_signals", "traffic_signals:direction": "forward"}}, {"type": "node", "id": 250634253, "lat": 52.6635256, "lon": -8.6259531}, {"type": "node", "id": 267680632, "lat": 52.6642049, "lon": -8.6262475}, {"type": "node", "id": 267681075, "lat": 52.6630997, "lon": -8.6248334}, {"type": "node", "id": 506549943, "lat": 52.6639891, "lon": -8.6267958, "tags": {"addr:city": "Limerick", "addr:street": "O'Connell Street", "check_date": "2024-01-15", "shop": "vacant", "wheelchair": "yes"}}, {"type": "node", "id": 655368414, "lat": 52.6634521, "lon": -8.6257745}, {"type": "node", "id": 655378208, "lat": 52.6626639, "lon": -8.623691}, {"type": "node", "id": 1153805597, "lat": 52.6641527, "lon": -8.6273273}, {"type": "node", "id": 1243870176, "lat": 52.6636401, "lon": -8.6262434}, {"type": "node", "id": 1305340581, "lat": 52.6637405, "lon": -8.6286787, "tags": {"barrier": "kerb", "bollard": "rising", "kerb": "lowered", "tactile_paving": "no"}}, {"type": "node", "id": 2211849832, "lat": 52.6640029, "lon": -8.627062, "tags": {"bench": "no", "bin": "no", "bus": "yes", "covered": "no", "highway": "bus_stop", "kerb": "raised", "kerb:approach_aid": "yes", "lit": "yes", "name": "Sarsfield Street", "network": "Transport for Ireland", "network:wikidata": "Q17100681", "network:wikipedia": "en:National Transport Authority (Ireland)", "operator": "Bus \u00c9ireann", "passenger_information_display": "yes", "passenger_information_display:speech_output": "no", "public_transport": "platform", "ref": "607831", "route_ref": "304", "shelter": "yes", "tactile_paving": "yes"}}, {"type": "node", "id": 3654543538, "lat": 52.6642306, "lon": -8.6269479}, {"type": "node", "id": 4020703886, "lat": 52.6639114, "lon": -8.6265722, "tags": {"highway": "traffic_signals", "traffic_signals": "signal", "traffic_signals:direction": "forward"}}, {"type": "node", "id": 4020703891, "lat": 52.6639779, "lon": -8.6265758}, {"type": "node", "id": 4020703892, "lat": 52.6639931, "lon": -8.6266335}, {"type": "node", "id": 4020703893, "lat": 52.6639411, "lon": -8.6266941}, {"type": "node", "id": 4020703894, "lat": 52.6639259, "lon": -8.6266512}, {"type": "node", "id": 4020703895, "lat": 52.6639429, "lon": -8.6266172}, {"type": "node", "id": 4329130307, "lat": 52.6632764, "lon": -8.6274591, "tags": {"barrier": "kerb", "bollard": "rising", "kerb": "flush", "tactile_paving": "no"}}, {"type": "node", "id": 4332668779, "lat": 52.6638346, "lon": -8.6274989}, {"type": "node", "id": 4523146215, "lat": 52.6638313, "lon": -8.6275023}, {"type": "node", "id": 4700163194, "lat": 52.6644431, "lon": -8.6259994}, {"type": "node", "id": 5016821863, "lat": 52.66392, "lon": -8.6272093}, {"type": "node", "id": 5016821864, "lat": 52.663825, "lon": -8.6269624}, {"type": "node", "id": 5016821865, "lat": 52.6637909, "lon": -8.6269544}, {"type": "node", "id": 5016821867, "lat": 52.663831, "lon": -8.6274889}, {"type": "node", "id": 5387301289, "lat": 52.6636279, "lon": -8.6271204}, {"type": "node", "id": 5387301290, "lat": 52.6637233, "lon": -8.6270236}, {"type": "node", "id": 5387301291, "lat": 52.6637941, "lon": -8.6272115}, {"type": "node", "id": 5387301292, "lat": 52.663819, "lon": -8.627186}, {"type": "node", "id": 5387301294, "lat": 52.6638558, "lon": -8.6272786}, {"type": "node", "id": 5387301295, "lat": 52.6638215, "lon": -8.6273157}, {"type": "node", "id": 5387301296, "lat": 52.6638495, "lon": -8.6273862}, {"type": "node", "id": 5387301297, "lat": 52.663808, "lon": -8.6274311}, {"type": "node", "id": 5387301298, "lat": 52.6637666, "lon": -8.6274865}, {"type": "node", "id": 5387301299, "lat": 52.663809, "lon": -8.6275245}, {"type": "node", "id": 5387301300, "lat": 52.6637867, "lon": -8.6274658}, {"type": "node", "id": 5728749708, "lat": 52.6639023, "lon": -8.626904, "tags": {"highway": "traffic_signals", "traffic_signals": "signal", "traffic_signals:direction": "forward"}}, {"type": "node", "id": 5728749711, "lat": 52.6631945, "lon": -8.6272505, "tags": {"barrier": "bollard"}}, {"type": "node", "id": 6370172469, "lat": 52.6637854, "lon": -8.6270448, "tags": {"amenity": "cafe", "brand": "Starbucks", "brand:wikidata": "Q37158", "brand:wikipedia": "en:Starbucks", "check_date": "2024-09-06", "cuisine": "coffee_shop", "description:covid19": "take away only", "name": "Starbucks", "official_name": "Starbucks Coffee", "opening_hours": "Mo-Fr 07:00-21:00; Sa-Su 07:00-20:00", "takeaway": "yes", "toilets:wheelchair": "yes", "wheelchair": "yes"}}, {"type": "node", "id": 6455703132, "lat": 52.6643094, "lon": -8.6271539}, {"type": "node", "id": 6455703133, "lat": 52.6639603, "lon": -8.626833}, {"type": "node", "id": 6455703134, "lat": 52.6639704, "lon": -8.6267353}, {"type": "node", "id": 6455703135, "lat": 52.6641031, "lon": -8.6266109}, {"type": "node", "id": 7529722777, "lat": 52.6642656, "lon": -8.6280576}, {"type": "node", "id": 7529722778, "lat": 52.6642656, "lon": -8.6281391}, {"type": "node", "id": 7529722779, "lat": 52.6642331, "lon": -8.6281799}, {"type": "node", "id": 7529722780, "lat": 52.6641991, "lon": -8.6281825}, {"type": "node", "id": 7529722781, "lat": 52.6638329, "lon": -8.626929}, {"type": "node", "id": 7529722782, "lat": 52.6638025, "lon": -8.6269058}, {"type": "node", "id": 7529722800, "lat": 52.664503, "lon": -8.6262406}, {"type": "node", "id": 7529722801, "lat": 52.6644582, "lon": -8.6262152}, {"type": "node", "id": 7529722802, "lat": 52.6640327, "lon": -8.626633}, {"type": "node", "id": 7529722803, "lat": 52.6644358, "lon": -8.6262095}, {"type": "node", "id": 7529722805, "lat": 52.6645842, "lon": -8.6278031}, {"type": "node", "id": 7529722806, "lat": 52.6645128, "lon": -8.6279024}, {"type": "node", "id": 7529722807, "lat": 52.6644176, "lon": -8.6280016}, {"type": "node", "id": 7529722808, "lat": 52.6643953, "lon": -8.6279924}, {"type": "node", "id": 7529722809, "lat": 52.6639313, "lon": -8.6268203}, {"type": "node", "id": 7529722810, "lat": 52.6639543, "lon": -8.6267207}, {"type": "node", "id": 7529722814, "lat": 52.6638363, "lon": -8.6265503}, {"type": "node", "id": 7529722815, "lat": 52.6638582, "lon": -8.6265454}, {"type": "node", "id": 7529887782, "lat": 52.6637582, "lon": -8.6266719}, {"type": "node", "id": 7529887783, "lat": 52.66375, "lon": -8.6266486}, {"type": "node", "id": 7529926685, "lat": 52.6634958, "lon": -8.6260305, "tags": {"barrier": "kerb", "kerb": "flush", "tactile_paving": "yes"}}, {"type": "node", "id": 7529926710, "lat": 52.663136, "lon": -8.6249303, "tags": {"button_operated": "yes", "crossing:signals": "yes", "highway": "crossing", "tactile_paving": "yes", "traffic_signals:sound": "yes"}}, {"type": "node", "id": 7529926713, "lat": 52.6639278, "lon": -8.626783}, {"type": "node", "id": 7529926714, "lat": 52.6639396, "lon": -8.6267493}, {"type": "node", "id": 7529926716, "lat": 52.6637234, "lon": -8.6267108}, {"type": "node", "id": 7529926717, "lat": 52.6638153, "lon": -8.6269115}, {"type": "node", "id": 7530203969, "lat": 52.6646699, "lon": -8.6277113, "tags": {"barrier": "kerb", "kerb": "flush", "tactile_paving": "no"}}, {"type": "node", "id": 10188942311, "lat": 52.6623312, "lon": -8.6228439, "tags": {"crossing": "unmarked", "crossing:markings": "no", "highway": "crossing", "tactile_paving": "yes"}}, {"type": "node", "id": 12218708967, "lat": 52.6641754, "lon": -8.6282082}, {"type": "node", "id": 12218708969, "lat": 52.6644229, "lon": -8.6279961}, {"type": "node", "id": 12218708970, "lat": 52.664334, "lon": -8.6280644, "tags": {"crossing:signals": "yes", "highway": "crossing"}}, {"type": "node", "id": 12218717349, "lat": 52.663883, "lon": -8.6266064, "tags": {"bicycle": "yes", "crossing": "traffic_signals", "crossing:island": "no", "crossing_ref": "toucan", "highway": "crossing"}}, {"type": "node", "id": 12218717350, "lat": 52.6637453, "lon": -8.6267627, "tags": {"bicycle": "yes", "crossing": "traffic_signals", "crossing:island": "no", "crossing_ref": "toucan", "highway": "crossing"}}, {"type": "node", "id": 12218717351, "lat": 52.6637874, "lon": -8.6266069, "tags": {"crossing:signals": "yes", "highway": "crossing"}}, {"type": "node", "id": 12218717352, "lat": 52.6637431, "lon": -8.6266914}, {"type": "node", "id": 12218717353, "lat": 52.6638887, "lon": -8.6268672, "tags": {"crossing": "traffic_signals", "crossing:island": "no", "highway": "crossing"}}, {"type": "node", "id": 12646891696, "lat": 52.663776, "lon": -8.6267297}, {"type": "node", "id": 12646891697, "lat": 52.6638599, "lon": -8.6266343}, {"type": "node", "id": 12656813104, "lat": 52.6637043, "lon": -8.626809, "tags": {"bicycle": "yes", "highway": "traffic_signals", "traffic_signals:direction": "backward"}}, {"type": "way", "id": 22716471, "nodes": [218478001, 12218717351, 1243870176, 250634253, 655368414, 7529926710, 267681075, 655378208, 10188942311, 250587032], "tags": {"highway": "secondary", "lanes": "2", "maxspeed": "50", "name": "William Street", "name:ga": "Sr\u00e1id Liam", "oneway": "yes", "ref": "R527", "sidewalk:both": "separate", "surface": "asphalt", "wikidata": "Q8018908"}}, {"type": "way", "id": 23178041, "nodes": [12646891696, 12218717350, 12656813104, 250559085], "tags": {"cycleway": "track", "cycleway:right:oneway": "-1", "highway": "secondary", "lanes": "2", "logainm:ref": "1404871", "logainm:url": "https://www.logainm.ie/1404871.aspx", "maxspeed": "50", "name": "O'Connell Street", "name:en": "O'Connell Street", "name:ga": "Sr\u00e1id U\u00ed Chonaill", "oneway": "yes", "oneway:bicycle": "no", "ref": "R526", "surface": "asphalt", "wikidata": "Q7071715"}}, {"type": "way", "id": 23961899, "nodes": [218478010, 12218708970, 5728749708, 12218717353, 218478001], "tags": {"alt_name:ga": "Sr\u00e1id An tS\u00e1irs\u00e9alaigh", "highway": "secondary", "lanes": "2", "maxspeed": "50", "name": "Sarsfield Street", "name:ga": "Sr\u00e1id S\u00e1irs\u00e9il", "oneway": "yes", "ref": "R527", "source": "names: street signs on opposite sides of the street!", "surface": "asphalt", "wikidata": "Q7424602"}}, {"type": "way", "id": 375736463, "nodes": [4700163194, 267680632, 4020703886, 12218717349, 12646891697], "tags": {"cycleway": "track", "cycleway:right:oneway": "-1", "highway": "secondary", "lanes": "2", "logainm:ref": "1404871", "logainm:url": "https://www.logainm.ie/1404871.aspx", "maxspeed": "50", "name": "O'Connell Street", "name:en": "O'Connell Street", "name:ga": "Sr\u00e1id U\u00ed Chonaill", "oneway": "yes", "oneway:bicycle": "no", "ref": "R526", "surface": "asphalt", "wikidata": "Q7071715"}}, {"type": "way", "id": 399335824, "nodes": [4020703891, 4020703892, 4020703893, 4020703894, 4020703895, 4020703891], "tags": {"amenity": "bicycle_parking", "bicycle_parking": "stands", "capacity": "16", "covered": "no"}}, {"type": "way", "id": 513146758, "nodes": [5016821864, 5016821865, 5387301290, 5387301291, 5387301292, 5387301294, 5016821863, 5016821864], "tags": {"amenity": "cafe", "building": "yes"}}, {"type": "way", "id": 558576392, "nodes": [5016821867, 5387301297, 5387301296, 5387301295, 5387301294, 5387301292, 5387301291, 5387301290, 5387301289, 5387301298, 5387301300, 5387301299, 4523146215, 4332668779, 5016821867], "tags": {"building": "yes", "check_date": "2023-12-12", "disused:amenity": "bank"}}, {"type": "way", "id": 688439677, "nodes": [6455703132, 3654543538, 6455703135, 6455703134, 6455703133, 1153805597, 6455703132], "tags": {"building": "yes", "check_date": "2025-09-28", "shop": "vacant"}}, {"type": "way", "id": 805015393, "nodes": [4329130307, 7529722782, 7529926717, 7529722781, 7529722777, 7529722778, 7529722779, 7529722780, 12218708967, 1305340581], "tags": {"footway": "sidewalk", "highway": "footway", "lit": "yes", "surface": "paving_stones"}}, {"type": "way", "id": 805015402, "nodes": [7529722802, 7529722803, 7529722801, 7529722800], "tags": {"footway": "sidewalk", "highway": "footway", "surface": "paving_stones"}}, {"type": "way", "id": 805092174, "nodes": [5728749711, 7529926716, 12218717352, 7529887782, 7529887783, 7529926685], "tags": {"footway": "sidewalk", "highway": "footway", "lit": "yes", "surface": "paving_stones"}}, {"type": "way", "id": 805092194, "nodes": [7529722781, 12218717353, 7529722809], "tags": {"button_operated": "yes", "crossing": "traffic_signals", "crossing:island": "no", "crossing:markings": "dashes", "footway": "crossing", "highway": "footway", "lit": "yes", "surface": "paved", "tactile_paving": "yes", "traffic_calming": "table"}}, {"type": "way", "id": 805092195, "nodes": [7529926714, 12218717349, 7529722815], "tags": {"bicycle": "designated", "crossing": "traffic_signals", "crossing:island": "no", "crossing:markings": "dashes", "cycleway": "crossing", "foot": "designated", "highway": "cycleway", "lit": "yes", "surface": "paved", "tactile_paving": "yes", "traffic_calming": "table"}}, {"type": "way", "id": 805092196, "nodes": [7529722814, 12218717351, 7529887783], "tags": {"crossing": "traffic_signals", "crossing:island": "no", "crossing:markings": "dashes", "footway": "crossing", "highway": "footway", "lit": "yes", "surface": "paved", "tactile_paving": "yes"}}, {"type": "way", "id": 805092197, "nodes": [7529722782, 12218717350, 7529926716], "tags": {"crossing": "traffic_signals", "crossing:island": "no", "crossing:markings": "dashes", "footway": "crossing", "highway": "footway", "lit": "yes", "surface": "paved", "tactile_paving": "yes", "traffic_calming": "table"}}, {"type": "way", "id": 805150429, "nodes": [7530203969, 7529722805, 7529722806, 12218708969, 7529722807, 7529722808, 7529722809, 7529926713, 7529926714, 7529722810, 7529722802], "tags": {"footway": "sidewalk", "highway": "footway", "lit": "yes", "surface": "paving_stones"}}, {"type": "way", "id": 1365664065, "nodes": [218478001, 12646891696], "tags": {"cycleway": "lane", "cycleway:right:oneway": "-1", "highway": "secondary", "lanes": "2", "logainm:ref": "1404871", "logainm:url": "https://www.logainm.ie/1404871.aspx", "maxspeed": "50", "name": "O'Connell Street", "name:en": "O'Connell Street", "name:ga": "Sr\u00e1id U\u00ed Chonaill", "oneway": "yes", "oneway:bicycle": "no", "ref": "R526", "surface": "asphalt", "wikidata": "Q7071715"}}, {"type": "way", "id": 1365664067, "nodes": [12646891697, 218478001], "tags": {"cycleway": "lane", "cycleway:right:oneway": "-1", "highway": "secondary", "lanes": "2", "logainm:ref": "1404871", "logainm:url": "https://www.logainm.ie/1404871.aspx", "maxspeed": "50", "name": "O'Connell Street", "name:en": "O'Connell Street", "name:ga": "Sr\u00e1id U\u00ed Chonaill", "oneway": "yes", "oneway:bicycle": "no", "ref": "R526", "surface": "asphalt", "wikidata": "Q7071715"}}]}